Name,Address,Phone,Fax,Longitude,Latitude
La Quinta Inn & Suites Aberdeen-APG,"793 W. Bel Air Avenue,
Aberdeen, MD 21001",1-800-753-3757,1-410-272-7706,-76.188459,39.523216
La Quinta Inn & Suites Abilene Mall,"3018 CatClaw Dr,
Abilene, TX 79606",1-325-437-4832,1-325-437-4840,-99.778765,32.413489
La Quinta Inn Abilene,"3501 West Lake Rd,
Abilene, TX 79601",1-325-676-1676,1-325-672-8323,-99.722688,32.491357
La Quinta Inn Acworth,"184 North Point Way,
Acworth, GA 30102",1-770-975-9920,1-770-975-9342,-84.656087,34.082039
La Quinta Inn & Suites Ada,"2828 East Arlington Street,
Ada, OK 74820",1-580-436-5000,1-580-436-5004,-96.636515,34.781805
La Quinta Inn & Suites Dallas Addison Galleria,"14925 Landmark Blvd,
Addison, TX 75254",1-972-404-0004,1-972-960-6439,-96.82874,32.951644
LQ Hotel by La Quinta Aguascalientes,"Carretera Panamericana Sur KM 12,
Aguascalientes, AG 20345",52-449-2399050,52-449-2399050,-102.276329,21.755585
La Quinta Inn & Suites Alamo - McAllen East,"909 East Frontage Rd,
Alamo, TX 78516",1-956-783-6955,1-956-783-6944,-98.119251,26.189974
La Quinta Inn Albuquerque Airport,"2116 Yale Blvd Southeast,
Albuquerque, NM 87106-4233",1-505-243-5500,1-505-247-8288,-106.621731,35.058154
La Quinta Inn & Suites Albuquerque Journal Ctr NW,"7439 Pan American Fwy Northeast,
Albuquerque, NM 87109",1-505-345-7500,1-505-345-1616,-106.588759,35.160862
La Quinta Inn & Suites Albuquerque Midtown,"2011 Menaul Blvd Northeast,
Albuquerque, NM 87107",1-505-761-5600,1-505-761-5601,-106.621918,35.110676
La Quinta Inn Albuquerque Northeast,"5241 San Antonio Dr Northeast,
Albuquerque, NM 87109-4135",1-505-821-9000,1-505-821-2399,-106.585234,35.160262
La Quinta Inn & Suites Albuquerque West,"6101 Iliff Rd Northwest,
Albuquerque, NM 87121",1-505-839-1744,1-505-839-1797,-106.708359,35.103537
La Quinta Inn & Suites Alexandria Airport,"6116 West Calhoun Dr,
Alexandria, LA 71303",1-318-442-3700,1-318-442-0870,-92.521641,31.345904
La Quinta Inn & Suites Alice,"2400 East Main St,
Alice, TX 78332",1-361-661-1777,1-361-661-1771,-98.043509,27.764255
La Quinta Inn & Suites Allen at The Village,"1220 North Central Expressway,
Allen, TX 75013",1-214-667-6772,1-214-667-6783,-96.667392,33.116742
La Quinta Inn & Suites Alvarado,"1165 Hwy 67W,
Alvarado, TX 76009",1-817-783-8700,1-817-783-8710,-97.223768,32.414902
La Quinta Inn & Suites Alvin,"880 South Loop 35,
Alvin, TX 77511",1-281-585-3900,1-281-585-3901,-95.230114,29.417545
La Quinta Inn Amarillo East Airport Area,"1708 Interstate 40 East,
Amarillo, TX 79103-2114",1-806-373-7486,1-806-372-4100,-101.818769,35.192004
La Quinta Inn & Suites Amarillo Mid City,"9305 East Interstate 40,
Amarillo, TX 79118",1-806-335-9572,1-806-335-9592,-101.731491,35.193716
La Quinta Inn Amarillo West Medical Center,"2108 S Coulter St,
Amarillo, TX 79106-2514",1-806-352-6311,1-806-359-3179,-101.921947,35.189119
La Quinta Inn & Suites Anaheim,"1752 Clementine St,
Anaheim, CA 92802",1-714-635-5000,1-714-776-9073,-117.909934,33.804336
La Quinta Inn & Suites Anchorage Airport,"3501 Minnesota Dr.,
Anchorage, AK 99503",1-907-276-8884,1-907-279-8194,-149.911896,61.188425
La Quinta Inn & Suites Boston-Andover,"131 River Rd,
Andover, MA 01810",1-978-685-6200,1-978-794-9626,-71.208835,42.690716
La Quinta Inn & Suites Andrews,"1012 NE 1st Place,
Andrews, TX 79714",1-432-223-3140,1-432-223-3141,-102.548602,32.329328
La Quinta Inn & Suites Angleton,"2400 West Mulberry St,
Angleton, TX 77515",1-979-864-3383,1-979-864-3652,-95.457995,29.162936
La Quinta Inn & Suites Appleton College Avenue,"3800 West College Ave,
Appleton, WI 54914",1-920-734-7777,1-920-734-0049,-88.462334,44.262343
La Quinta Inn & Suites Ardmore Central,"1502 Woerz Way,
Ardmore, OK 73401",1-580-220-2990,1-580-220-2991,-97.16337,34.18978
La Quinta Inn & Suites Arlington North 6 Flags Dr,"825 North Watson Rd,
Arlington, TX 76011",1-817-640-4142,1-817-649-7864,-97.065655,32.754999
La Quinta Inn & Suites Armonk Westchester Cnty Apt,"94 Business Park Dr,
Armonk, NY 10504",1-914-273-9090,1-914-273-4105,-73.70732,41.120988
La Quinta Inn & Suites Artesia,"2207 West Main Street,
Artesia, NM 88210",1-575-736-2400,1-575-736-2401,-104.423782,32.841684
La Quinta Inn & Suites Houston Humble Atascocita,"6909 Atascocita Rd.,
Humble, TX 77346",1-832-644-1609,1-832-644-1808,-95.173552,29.996108
La Quinta Inn & Suites Atlanta Airport North,"1200 Virginia Ave,
Atlanta, GA 30344",1-404-209-1800,1-404-209-1803,-84.428622,33.658159
La Quinta Inn & Suites Atlanta Airport South,"4820 Massachusetts Blvd,
Atlanta, GA 30337",1-770-996-0000,1-770-996-9260,-84.45413,33.62373
La Quinta Inn & Suites Atlanta Alpharetta,"1350 North Point Dr,
Alpharetta, GA 30022",1-770-754-7800,1-770-754-9242,-84.289212,34.050777
La Quinta Inn & Suites Atlanta Conyers,"1184 Dogwood Dr SE,
Conyers, GA 30012",1-770-918-0092,1-770-918-0565,-84.005762,33.654899
La Quinta Inn & Suites Atlanta Douglasville,"1000 Linnenkohl Dr,
Douglasville, GA 30134",1-770-577-3838,1-770-577-2731,-84.75943,33.731487
La Quinta Inn & Suites Atlanta Duluth,"2370 Stephens Center Dr,
Duluth, GA 30096",1-678-957-0500,1-678-957-1006,-84.092387,33.975076
La Quinta Inn & Suites Atlanta Midtown – Buckhead,"2535 Chantilly Dr Northeast,
Atlanta, GA 30324",1-404-321-0999,1-404-634-3384,-84.349433,33.823624
La Quinta Inn & Suites Atlanta Ballpark/Galleria,"2415 Paces Ferry Rd Southeast,
Atlanta, GA 30339",1-770-801-9002,1-770-801-9086,-84.483304,33.862991
La Quinta Inn & Suites Atlanta Perimeter Medical,"6260 Peachtree Dunwoody Rd,
Atlanta, GA 30328",1-770-350-6177,1-770-350-6630,-84.351476,33.923017
La Quinta Inn & Suites Atlanta Roswell,"575 Old Holcomb Bridge Rd,
Roswell, GA 30076",1-770-552-0200,1-770-552-0110,-84.328818,34.024387
La Quinta Inn & Suites Atlanta South - Newnan,"600 Bullsboro Dr,
Newnan, GA 30265",1-770-502-8430,1-770-502-8448,-84.758117,33.397119000000004
La Quinta Inn & Suites Atlanta Stockbridge,"3581 Cameron Pkwy,
Stockbridge, GA 30281",1-770-506-9991,1-770-506-8226,-84.274346,33.553188
La Quinta Inn Auburn Worcester,"446 Southbridge St,
Auburn, MA 01501",1-508-832-7000,1-508-832-5790,-71.841529,42.199433
La Quinta Inn & Suites Auburn,"225 6th Street South East,
Auburn, WA 98002",1-253-804-9999,1-253-833-9998,-122.227077,47.302127
La Quinta Inn Augusta,"3020 Washington Rd,
Augusta, GA 30907",1-706-733-2660,1-706-738-3637,-82.046295,33.512282
La Quinta Inn & Suites Austin Airport,"7625 East Ben White Blvd,
Austin, TX 78741",1-512-386-6800,1-512-386-8785,-97.691821,30.217562
La Quinta Inn Austin Capitol / Downtown,"300 East 11th St,
Austin, TX 78701",1-512-476-1166,1-512-476-6044,-97.7385,30.27219
La Quinta Inn & Suites Austin NW/Lakeline Mall,"10701 Lakeline Mall Dr,
Austin, TX 78717",1-512-568-3538,1-512-506-8944,-97.792153,30.475715
La Quinta Inn & Suites Austin - Cedar Park,"1010 East Whitestone Blvd,
Cedar Park, TX 78613",1-512-528-9300,1-512-528-9432,-97.817846,30.52437
La Quinta Inn & Suites Austin Mopac North at The Domain,"11901 North Mopac Expwy,
Austin, TX 78759",1-512-832-2121,1-512-832-5277,-97.718674,30.406888
La Quinta Inn Austin North,"7622 I-35 North,
Austin, TX 78752",1-512-467-1701,1-512-451-0966,-97.702027,30.339111
La Quinta Inn Austin Oltorf,"1603 East Oltorf Blvd,
Austin, TX 78741",1-512-447-6661,1-512-447-1744,-97.740332,30.233463
La Quinta Inn & Suites Round Rock North,"2004 North I-35,
Round Rock, TX 78681",1-512-255-6666,1-512-388-3635,-97.691897,30.52977
La Quinta Inn Austin South / IH35,"4200 I-35 South,
Austin, TX 78745-1202",1-512-443-1774,1-512-447-1555,-97.753277,30.21475
La Quinta Inn & Suites Austin Southwest at Mopac,"4424 South Mopac Expwy,
Austin, TX 78735",1-512-899-3000,1-512-899-3885,-97.817447,30.240884
La Quinta Inn Austin University Area,"5812 N Interstate Hwy 35,
Austin, TX 78751",1-512-459-4381,1-512-452-3917,-97.707833,30.319791
La Quinta Inn & Suites Bakersfield North,"8858 Spectrum Park Way,
Bakersfield, CA 93308",1-661-393-7775,1-661-393-5451,-119.0763,35.44045
La Quinta Inn Bakersfield South,"3232 Riverside Dr,
Bakersfield, CA 93308-6346",1-661-325-7400,1-661-324-6032,-119.042383,35.383269
La Quinta Inn & Suites Baltimore BWI Airport,"1734 West Nursery Rd,
Linthicum, MD 21090",1-410-859-2333,1-410-859-2357,-76.685058,39.197228
La Quinta Inn & Suites Baltimore Downtown,"200 West Saratoga Street,
Baltimore, MD 21201",1-410-528-1110,1-410-528-1130,-76.618319,39.293078
La Quinta Inn & Suites Baltimore N / White Marsh,"4 Philadelphia Ct,
Baltimore, MD 21237",1-410-574-8100,1-410-574-8204,-76.490684,39.338264
La Quinta Inn & Suites Baltimore South Glen Burnie,"6323 Ritchie Hwy,
Glen Burnie, MD 21061",1-410-636-4300,1-410-636-2630,-76.61359,39.20314
La Quinta Inn & Suites Batavia,"8200 Park Road,
Batavia, NY 14020",1-585-344-7000,1-585-343-4787,-78.19307,43.017308
La Quinta Inn & Suites Baton Rouge Denham Springs,"1617 Oneal Ln,
Baton Rouge, LA 70816",1-225-663-6663,1-225-300-4351,-91.007632,30.446422
La Quinta Inn & Suites Baton Rouge - Port Allen,"2720 N Westport Drive,
Port Allen, LA 70767",1-225-960-7787,1-225-960-7785,-91.239695,30.447357
La Quinta Inn & Suites Baton Rouge Siegen Lane,"10555 Reiger Rd,
Baton Rouge, LA 70809",1-225-291-6600,1-225-296-0474,-91.063721,30.382409
La Quinta Inn Baton Rouge University Area,"2333 South Acadian Thruway,
Baton Rouge, LA 70808-2304",1-225-924-9600,1-225-924-2609,-91.150534,30.425949
La Quinta Inn & Suites Bay City,"5300 7th St,
Bay City, TX 77414",1-979-323-9095,1-979-323-9489,-95.928454,28.989119
La Quinta Inn & Suites Beaumont West,"5820 Walden Rd,
Beaumont, TX 77707",1-409-842-0002,1-409-842-5742,-94.16126,30.038825
La Quinta Inn & Suites Beeville,"2062 HWY 59 E,
Beeville, TX 78102",1-361-362-2222,1-361-358-0400,-97.72453,28.411948
La Quinta Inn & Suites Belgrade - Bozeman Airport,"6445 Jackrabbit Lane,
Belgrade, MT 59714",1-406-388-2222,1-406-388-7501,-111.187371,45.764264
La Quinta Inn & Suites Bellingham,"1063 W. Bakerview Rd.,
Bellingham, WA 98226",1-360-738-7088,1-360-738-7011,-122.509771,48.789278
La Quinta Inn & Suites Belton - Temple South,"229 West Loop 121,
Belton, TX 76513",1-254-939-2772,1-254-939-1769,-97.476861,31.030284
La Quinta Inn Bend,"61200 South Hwy 97,
Bend, OR 97702",1-541-388-2227,1-541-388-8820,-121.315628,44.021764
La Quinta Inn & Suites Bentonville,"1001 Southeast Walton,
Bentonville, AR 72712",1-479-271-7555,1-479-271-6262,-94.199379,36.335778
La Quinta Inn Berkeley,"920 University Ave,
Berkeley, CA 94710",1-510-849-1121,1-510-845-4397,-122.2956,37.868382
La Quinta Inn & Suites Big Spring,"1102 IH 20 West,
Big Spring, TX 79720",1-432-264-0222,1-432-264-0840,-101.496334,32.263475
La Quinta Inn & Suites Billings,"5720 S. Frontage Rd.,
Billings, MT 59101",1-406-252-1188,1-406-252-1199,-108.560494,45.747138
La Quinta Inn & Suites Biloxi,"957 Cedar Lake Rd,
Biloxi, MS 39532",1-228-392-5978,1-228-392-5982,-88.935659,30.445751
La Quinta Inn Binghamton - Johnson City,"581 Harry L. Dr,
Johnson City, NY 13790",1-607-770-9333,1-607-770-7526,-75.97092,42.124717
La Quinta Inn Birmingham / Cahaba Park South,"513 Cahaba Park Circle,
Birmingham, AL 35242",1-205-995-9990,1-205-995-0563,-86.708318,33.430991
La Quinta Inn & Suites Birmingham Homewood,"60 State Farm Pkwy,
Homewood, AL 35209",1-205-290-0150,1-205-290-0850,-86.81964,33.455237
La Quinta Inn & Suites Birmingham Hoover,"120 Riverchase Pkwy East,
Birmingham, AL 35244",1-205-403-0096,1-205-403-0380,-86.783656,33.353175
La Quinta Inn & Suites Bismarck,"2240 North 12th Street,
Bismarck, ND 58501",1-701-751-3313,1-701-751-3314,-100.77363,46.829646
La Quinta Inn & Suites Blue Springs,"3402 North West Jefferson St,
Blue Springs, MO 64015",1-816-988-9980,1-816-988-9981,-94.304078,39.035186
La Quinta Inn & Suites Boise Airport,"2613 S. Vista Ave.,
Boise, ID 83705",1-208-388-0800,1-208-388-0846,-116.214351,43.57857
La Quinta Inn & Suites Boise Towne Square,"7965 W. Emerald Street,
Boise, ID 83704",1-208-378-7000,1-208-378-7040,-116.281134,43.610716
La Quinta Inn & Suites Bonita Springs Naples North,"28600 Trails Edge Blvd,
Bonita Springs, FL 34134",1-239-495-9255,1-239-495-6448,-81.806759,26.320198
La Quinta Inn & Suites Boone,"165 Hwy 105 Extension,
Boone, NC 28607",1-828-262-1234,1-828-262-1254,-81.668812,36.215502
La Quinta Inn Bossier City,"309 Preston Blvd,
Bossier City, LA 71111-4969",1-318-747-4400,1-318-747-1516,-93.712905,32.518181
La Quinta Inn & Suites Boston Somerville,"23 Cummings St,
Somerville, MA 02145",1-617-625-5300,1-617-625-5930,-71.08477,42.394494
La Quinta Inn & Suites Boutte,"14221 Highway 90,
Boutte, LA 70039",1-985-758-7800,1-985-306-0357,-90.412395,29.889892
La Quinta Inn & Suites Bowling Green,"1953 Mel Browning St,
Bowling Green, KY 42104",1-270-783-0083,1-270-783-0085,-86.418253000000007,36.930559
La Quinta Inn & Suites Bozeman,"620 Nikles Dr,
Bozeman, MT 59715",1-406-585-9300,1-406-585-2900,-111.045599,45.698645
La Quinta Inn & Suites Brandon Jackson Airport E,"215 Dande Rd,
Brandon, MS 39042",1-601-591-1045,1-601-591-1088,-90.035571,32.276105
La Quinta Inn & Suites Brenham,"2950 Wood Ridge Blvd,
Brenham, TX 77833",1-979-836-5551,1-979-836-8324,-96.395518,30.137301
La Quinta Inn & Suites Bridge City,"108 Texas Ave,
Bridge City, TX 77611",1-409-735-2221,1-409-735-2224,-93.849335,30.017066
La Quinta Inn & Suites Bridgeport,"2000 10th St,
Bridgeport, TX 76426",1-940-683-2040,1-940-683-5671,-97.756935,33.221609
La Quinta Inn & Suites Tulsa Broken Arrow,"451 W Albany St,
Broken Arrow, OK 74012",1-918-615-3400,1-918-615-3401,-95.795626,36.074951
La Quinta Inn & Suites Brooklyn Central,"1229 Atlantic Ave.,
Brooklyn, NY 11216",1-718-925-4313,1-718-925-4314,-73.950257,40.678809
La Quinta Inn & Suites Brooklyn Downtown,"533 3rd Ave,
Brooklyn, NY 11215",1-718-832-4747,1-718-832-4749,-73.99303,40.669041
La Quinta Inn & Suites Brooklyn East,"1412 Pitkin Ave,
Brooklyn, NY 11233",1-718-735-0915,1-718-735-0916,-73.921544,40.668313
La Quinta Inn & Suites Brookshire,"721 FM 1489,
Brookshire, TX 77423",1-281-375-8888,1-281-375-8892,-95.966842,29.777448
La Quinta Inn & Suites Broussard - Lafayette Area,"104 Sweetland Avenue,
Broussard, LA 70518",1-337-330-8081,1-337-330-8140,-91.948915,30.143272
La Quinta Inn & Suites Brownsville North,"5051 North Expressway,
Brownsville, TX 78520",1-956-350-2118,1-956-350-2122,-97.519053,25.979766
La Quinta Inn & Suites Brownwood,"103 Market Place Blvd,
Brownwood, TX 76801",1-325-641-1731,1-325-641-1732,-98.978984,31.730065
La Quinta Inn & Suites Brunswick,"165 Warren Mason Blvd,
Brunswick, GA 31520",1-912-265-7725,1-912-264-6151,-81.523385,31.217181
La Quinta Inn & Suites Buena Park,"3 Centerpointe Dr,
La Palma, CA 90623",1-714-670-1400,1-714-522-4698,-118.031399,33.860411
La Quinta Inn Buffalo Airport,"6619 Transit Rd,
Williamsville, NY 14221",1-716-633-1011,1-716-633-2579,-78.69662,42.9479
La Quinta Inn & Suites Burleson,"225 East Alsbury Blvd,
Burleson, TX 76028",1-817-447-6565,1-817-447-2336,-97.316203,32.563868
La Quinta Inn & Suites Butte,"1 Holiday Park Drive,
Butte, MT 59701",1-406-494-6999,1-406-494-1300,-112.502603,45.98376
La Quinta Inn Caldwell,"901 Specht Ave,
Caldwell, ID 83605",1-208-454-2222,1-208-454-9334,-116.6616,43.661903
La Quinta Inn Calhoun,"150 Cracker Barrel Dr,
Calhoun, GA 30701",1-706-629-2559,1-706-629,-84.915397,34.470756
LQ Hotel by La Quinta Cancun,"Av. Tulum Mza. 14 S.M. 4 Lote 2 ,
Cancun, QR 77500",52-998-8729400,52-998-8729401,-86.824616,21.151911
La Quinta Inn & Suites Canton,"152 Soldiers Colony Rd,
Canton, MS 39046",1-601-855-2121,1-601-855-2494,-90.068155,32.601797
La Quinta Inn & Suites Canton,"5335 Broadmoor Circle Northwest,
Canton, OH 44709",1-330-492-0151,1-330-492-7523,-81.417823,40.857813
La Quinta Inn & Suites DC Metro Capitol Beltway,"55 Hampton Park Blvd,
Capitol Heights, MD 20743",1-301-336-8900,1-301-336-6419,-76.853506,38.888787
La Quinta Inn & Suites Carlsbad,"4020 National Parks Highway,
Carlsbad, NM 88220",1-575-236-1010,1-575-236-1013,-104.231304,32.372932
La Quinta Inn Casper,"400 West F St,
Casper, WY 82601",1-307-265-1200,1-307-265-5522,-106.33081,42.857451
La Quinta Inn & Suites Castle Rock,"884 Park St.,
Castle Rock, CO 80109",1-303-660-2230,1-303-660-2270,-104.865564,39.379098
LQ Hotel by La Quinta Cd Juarez Near US Consulate,"Ejercito Nacional 8211, Col
Partido Iglesias
Juarez, CH 32528",011-52-6566482525,011-52-656648-0101,-106.410146,31.69713
La Quinta Inn & Suites Cedar City,"1377 South Main Street,
Cedar City, UT 84720",1-435-865-0005,1-435-865-0006,-113.078844,37.653952
La Quinta Inn & Suites Cedar Hill,"1419 N.US Hwy 67,
Cedar Hill, TX 75104",1-972-291-0008,1-972-637-1099,-96.91822,32.616565
La Quinta Inn & Suites Cedar Rapids,"1220 Park Place NE,
Cedar Rapids, IA 52402",1-319-378-8000,1-319-378-8080,-91.653626,42.030827
La Quinta Inn & Suites Central Point - Medford,"1777 LaRue Dr.,
Central Point, OR 97502",1-541-665-4141,1-541-664-3390,-122.901017,42.377109
La Quinta Inn & Suites Chambersburg,"199 Walker Rd,
Chambersburg, PA 17201",1-717-446-0770,1-717-446-0720,-77.633376,39.932577
La Quinta Inn Champaign,"1900 Center Dr,
Champaign, IL 61820-7821",1-217-356-4000,1-217-352-7783,-88.244699,40.138506
La Quinta Inn & Suites Charleston Riverview,"11 Ashley Pointe Dr,
Charleston, SC 29407",1-843-556-5200,1-843-556-7126,-79.962519,32.776676
La Quinta Inn & Suites Charlotte Airport North,"3127 Sloan Dr,
Charlotte, NC 28208",1-704-392-1600,1-704-392-7952,-80.920878,35.240873
La Quinta Inn & Suites Charlotte Airport South,"4900 South Tryon St,
Charlotte, NC 28217",1-704-523-5599,1-704-523-5156,-80.891167,35.178952
La Quinta Inn & Suites Charlottesville-UVA Medical,"1803 Emmet St N,
Charlottesville, VA 22901",1-434-293-6188,1-434-282-2059,-78.494269,38.060571
La Quinta Inn & Suites Chattanooga - East Ridge,"6650 Ringgold Rd.,
East Ridge, TN 37412",1-423-760-3120,1-423-551-8194,-85.200638,34.989669
La Quinta Inn Chattanooga / Hamilton Place,"7017 Shallowford Rd,
Chattanooga, TN 37421",1-423-855-0011,1-423-499-5409,-85.158114,35.044501
La Quinta Inn & Suites Chattanooga - Lookout Mtn,"311 Browns Ferry Rd.,
Chattanooga, TN 37419",1-423-551-4100,1-423-551-4101,-85.362667,35.030106
La Quinta Inn & Suites Chattanooga North - Hixson,"5000 New Country Drive,
Hixson, TN 37343",1-800-753-3757,1-423-308-2330,-85.240859,35.120277
La Quinta Inn & Suites Chattanooga,"7051 McCutcheon Rd.,
Chattanooga, TN 37421",1-423-899-2300,1-423-899-2282,-85.15515,35.046216
La Quinta Inn Cheyenne,"2410 West Lincolnway,
Cheyenne, WY 82009-3301",1-307-632-7117,1-307-638-7807,-104.847583,41.120203
La Quinta Inn & Suites Chicago Downtown,"One South Franklin,
Chicago, IL 60606",1-312-558-1020,1-312-558-1014,-87.635308,41.881555
La Quinta Inn & Suites Chicago Gurnee,"5688 Northridge Dr,
Gurnee, IL 60031",1-847-662-7600,1-847-662-5300,-87.944161,42.377958
La Quinta Inn & Suites Chicago - Lake Shore,"4900A S. Lake Shore Drive,
Chicago, IL 60615",1-773-324-3000,1-773-324-3088,-87.585842,41.806149
La Quinta Inn & Suites Bannockburn-Deerfield,"2000 South Lakeside Dr,
Bannockburn, IL 60015",1-847-317-7300,1-847-317-3350,-87.884592,42.196657
La Quinta Inn Chicago O'Hare Airport,"1900 East Oakton St,
Elk Grove Village, IL 60007",1-847-439-6767,1-847-228-4304,-87.958449,42.022537
La Quinta Inn Chicago Oakbrook Terrace,"1 South 666 Midwest Rd,
Oakbrook Terrace, IL 60181-4429",1-630-495-4600,1-630-495-2558,-87.973575,41.847782
La Quinta Inn & Suites Chicago Tinley Park,"7255 West 183rd St,
Tinley Park, IL 60477",1-708-633-1200,1-708-633-1444,-87.794183,41.557432
La Quinta Inn Chicago Willowbrook,"855 79th St,
Willowbrook, IL 60527",1-630-654-0077,1-630-654-0181,-87.943136,41.745026
La Quinta Inn & Suites Cincinnati Airport Florence,"350 Meijer Dr,
Florence, KY 41042",1-859-282-8212,1-859-282-8285,-84.635646,39.01189
La Quinta Inn Cincinnati North,"12150 Springfield Pike,
Springdale, OH 45246",1-513-671-2300,1-513-671-7324,-84.484772,39.300295
La Quinta Inn & Suites Cincinnati NE - Mason,"9918 Escort Dr,
Mason, OH 45040",1-513-459-1111,1-513-459-1168,-84.317231,39.294134
La Quinta Inn & Suites Cincinnati Sharonville,"11029 Dowlin Dr,
Cincinnati, OH 45241",1-513-771-0300,1-513-771-6411,-84.438924,39.272016
La Quinta Inn & Suites Claremore,"774 S Lynn Riggs Blvd,
Claremore, OK 74017",1-918-965-1877,1-918-965-1878,-95.623071,36.302921
La Quinta Inn & Suites Clarksville,"251 Holiday Drive,
Clarksville, TN 37040",1-931-906-0606,1-931-9068600,-87.280687,36.595634
La Quinta Inn & Suites Houston/Clear Lake-NASA,"520 West Bay Area Blvd,
Webster, TX 77598",1-281-554-5290,1-281-554-5292,-95.133855,29.545224
La Quinta Inn & Suites Clearwater Airport,"3301 Ulmerton Rd,
Clearwater, FL 33762",1-727-572-7222,1-727-572-0076,-82.678522,27.894745
La Quinta Inn Clearwater Central,"21338 US Hwy 19 North,
Clearwater, FL 33765",1-727-799-1565,1-727-797-6801,-82.731203,27.966329000000002
La Quinta Inn & Suites Clearwater South,"5000 Lake Blvd,
Clearwater, FL 33760",1-727-299-9800,1-727-299-0088,-82.702368,27.866735
La Quinta Inn & Suites Cleburne,"107 East Kilpatrick Ave,
Cleburne, TX 76031",1-817-641-4455,1-817-202-8617,-97.394941,32.370162
La Quinta Inn & Suites Cleveland - Airport North,"4222 West 150 St,
Cleveland, OH 44135",1-216-251-8500,1-216-251-4117,-81.804382,41.440044
La Quinta Inn & Suites Cleveland Airport West,"25105 Country Club Blvd,
North Olmsted, OH 44070",1-440-734-4477,1-440-734-0836,-81.905163,41.414013
La Quinta Inn Cleveland Independence,"6161 Quarry Ln,
Independence, OH 44131",1-216-447-1133,1-216-447-0135,-81.649205,41.394121
La Quinta Inn & Suites Cleveland Macedonia,"268 East Highland Rd,
Macedonia, OH 44056",1-330-468-5400,1-330-468-5500,-81.51709,41.299033
La Quinta Inn & Suites Cleveland,"130 Interstate Dr. NW,
Cleveland, TN 37312",1-423-813-7300,1-423-813-7111,-84.89023,35.19401
La Quinta Inn & Suites Cleveland,"1004 Hwy 59 South,
Cleveland, TX 77327",1-281-806-3007,1-281-592-4545,-95.09886,30.331694
La Quinta Inn & Suites Clifton Park,"1749 Route 9,
Clifton Park, NY 12065",1-518-579-6500,1-518-579-6505,-73.772059,42.870927
La Quinta Inn & Suites Clifton/Rutherford,"265 Rte 3 East,
Clifton, NJ 07014",1-973-778-6500,1-973-778-8724,-74.13415,40.827397
La Quinta Inn & Suites Clinton Historic Route 66,"2715 Chapman Road,
Clinton, OK 73601",1-580-547-4128,1-580-547-4131,-98.992745,35.494229
La Quinta Inn & Suites Clovis,"4521 North Prince St,
Clovis, NM 88101",1-575-763-8777,1-575-763-8778,-103.196299,34.443976
La Quinta Inn Clute Lake Jackson,"1126 South Hwy 332 West,
Clute, TX 77531-5399",1-979-265-7461,1-979-265-3804,-95.412173,29.010345
La Quinta Inn & Suites Cocoa Beach Oceanfront,"1 Hendry Ave,
Cocoa Beach, FL 32931",1-321-784-3126,1-321-799-0883,-80.603058,28.368703
La Quinta Inn Cocoa Beach-Port Canaveral,"1275 North Atlantic Ave,
Cocoa Beach, FL 32931",1-321-783-2252,1-321-323-5045,-80.610777,28.333593
La Quinta Inn & Suites Coeur d'Alene,"333 W Ironwood Dr.,
Coeur d Alene, ID 83814",1-208-665-9000,1-208-665-9900,-116.790947,47.696874
La Quinta Inn & Suites College Station South,"1838 Graham Road,
College Station, TX 77845",1-979-704-6100,1-979-704-6101,-96.283495,30.579473
La Quinta Inn College Station,"607 Texas Ave,
College Station, TX 77840",1-979-696-7777,1-979-696-0531,-96.333332,30.627416
La Quinta Inn & Suites Collinsville - St. Louis,"6 Gateway Drive,
Collinsville, IL 62234",1-618-855-8400,1-618-855-8408,-90.016968,38.682857
La Quinta Inn & Suites Colorado City,"880 East I-20,
Colorado City, TX 79512",1-325-307-5504,1-325-307-3244,-100.84643,32.409952
La Quinta Inn Colorado Springs Garden of the Gods,"4385 Sinton Rd,
Colorado Springs, CO 80907-4235",1-719-528-5060,1-719-598-0360,-104.829652,38.895653
La Quinta Inn & Suites Colorado Springs North,"8155 N Academy Blvd,
Colorado Springs, CO 80920",1-719-266-4300,1-719-344-5581,-104.803975,38.950545
La Quinta Inn & Suites Colorado Springs South AP,"2750 Geyser Dr,
Colorado Springs, CO 80906",1-719-527-4788,1-719-527-4789,-104.798017,38.792243
La Quinta Inn & Suites Columbia - Fort Meade,"7300 Crestmount Rd,
Jessup, MD 20794",1-410-799-1500,1-410-799-2716,-76.788753,39.171241
La Quinta Inn & Suites Columbia NE Fort Jackson,"1538 Horseshoe Dr,
Columbia, SC 29223",1-803-736-6400,1-803-788-7875,-80.946795,34.076073
La Quinta Inn Columbia SE / Fort Jackson,"7333 Garners Ferry Rd,
Columbia, SC 29209",1-803-783-5410,1-803-744-6839,-80.950136,33.969967
La Quinta Inn & Suites Columbia,"2500 Interstate 70 Dr Southwest,
Columbia, MO 65203",1-573-445-1899,1-573-445-4338,-92.37588,38.96832
La Quinta Inn Columbus Airport Area,"2447 Brice Rd,
Reynoldsburg, OH 43068-3455",1-614-866-6456,1-614-866-4522,-82.83178,39.936288
La Quinta Inn Columbus Dublin,"6145 Parkcenter Cir ,
Dublin, OH 43017-3584",1-614-792-8300,1-614-792-3333,-83.133174,40.077369
La Quinta Inn & Suites Columbus - Edinburgh,"101 Carrie Lane,
Columbus, IN 47201",1-812-379-4657,1-812-379-4659,-85.960945,39.198966
La Quinta Inn & Suites Columbus North,"1711 Rollins Way,
Columbus, GA 31904",1-800-753-3757,1-706-225-1019,-84.971236,32.536073
La Quinta Inn Columbus Fort Benning,"3201 Macon Rd, Suite A,
Columbus, GA 31906-1717",1-706-568-1740,1-706-569-7434,-84.941343,32.483085
La Quinta Inn & Suites Columbus State University,"2919 Warm Springs Rd,
Columbus, GA 31909",1-706-323-4344,1-706-596-9622,-84.948231,32.505224
La Quinta Inn & Suites Columbus West - Hilliard,"5510 Trabue Rd,
Columbus, OH 43228",1-614-878-8844,1-614-878-8693,-83.146319,39.980607
La Quinta Inn & Suites Columbus,"2427 Hwy 71 South,
Columbus, TX 78934",1-979-733-0522,1-979-733-0532,-96.538698,29.690313
La Quinta Inn & Suites Conroe,"4006 Sprayberry Ln,
Conroe, TX 77303",1-936-228-0790,1-936-228-0792,-95.48315,30.367483
La Quinta Inn & Suites Conway,"2350 Sanders Road,
Conway, AR 72032",1-501-328-5100,1-501-328-5170,-92.437121,35.111584
La Quinta Inn & Suites Cookeville,"1131 South Jefferson Ave,
Cookeville, TN 38501",1-931-520-3800,1-931-520-0030,-85.50473,36.133118
La Quinta Inn & Suites Coral Springs University Dr,"3701 University Dr,
Coral Springs, FL 33065",1-954-753-9000,1-954-755-4012,-80.249797,26.274424
La Quinta Inn & Suites Corpus Christi Airport,"546 South Padre Island Dr,
Corpus Christi, TX 78405",1-361-299-2600,1-361-299-2601,-97.460103,27.756736
La Quinta Inn & Suites Corpus Christi-N Padre Isl.,"14430 South Padre Island Drive,
Corpus Christi, TX 78418",1-361-949-9777,1-361-949-9795,-97.221232,27.620967
La Quinta Inn Corpus Christi North,"5155 I-37 North,
Corpus Christi, TX 78408-2614",1-361-888-5721,1-361-888-5401,-97.45181,27.80309
La Quinta Inn & Suites Corpus Christi Northwest,"10446 IH37 Access Rd,
Corpus Christi, TX 78410",1-361-241-4245,1-361-241-4267,-97.571619,27.8477
La Quinta Inn & Suites Corpus Christi - Portland,"201 Buddy Ganem Drive,
Portland, TX 78374",1-361-777-2777,1-361-777-2999,-97.310534,27.898401
La Quinta Inn Corpus Christi South,"6225 South Padre Island Dr,
Corpus Christi, TX 78412-4011",1-361-991-5730,1-361-993-1578,-97.358856,27.701641
La Quinta Inn & Suites Corsicana,"2020 Regal Dr,
Corsicana, TX 75109",1-903-874-6292,1-903-874,-96.440311,32.100185
La Quinta Inn & Suites Cotulla,"677 N. Baylor Ave.,
Cotulla, TX 78014",1-830-879-2200,1-830-879-2201,-99.244899,28.444643
La Quinta Inn & Suites Coventry/Providence,"4 Universal Blvd,
Coventry, RI 02816",1-401-821-3322,1-401-821-3344,-71.549986,41.662895
La Quinta Inn & Suites Covington,"9159 Access Rd NW ,
Covington, GA 30014",1-770-784-9200,1-770-784-9444,-83.883751,33.608474
La Quinta Inn & Suites Cullman,"2054 St. Joseph Drive,
Cullman, AL 35058",1-256-775-9500,1-256-775-9799,-86.8737453,34.2094288
La Quinta Inn & Suites Houston Cypress,"27130 Hwy 290,
Cypress, TX 77429",1-281-304-2711,1-832-334-5086,-95.720083,29.981833
La Quinta Inn & Suites Dalhart,"801 Liberal Street,
Dalhart, TX 79022",1-806-249-1145,1-806-244-3787,-102.514407,36.069353
La Quinta Inn & Suites Dallas Arlington South,"4001 Scots Legacy Dr,
Arlington, TX 76015",1-817-467-7756,1-817-467-5255,-97.123011,32.678811
La Quinta Inn & Suites Dallas - Richardson,"13175 North Central Expressway,
Dallas, TX 75243",1-972-480-9000,1-972-480-9002,-96.763272,32.92832
La Quinta Inn & Suites Dallas DFW Airport North,"4850 West John Carpenter Frwy,
Irving, TX 75063",1-972-915-4022,1-972-915-6960,-97.015725,32.917773
La Quinta Inn & Suites Dallas Downtown,"302 S. Houston St.,
Dallas, TX 75202",1-214-761-9090,1-214-761-0740,-96.807075,32.777244
La Quinta Inn & Suites Dallas Grand Prairie North,"380 E Palace Parkway,
Grand Prairie, TX 75050",1-469-999-0875,1-469-999-0851,-97.006275,32.7613
La Quinta Inn & Suites Dallas Grand Prairie South,"2131 West I-20,
Grand Prairie, TX 75052",1-214-412-3220,1-214-412-3407,-97.032093,32.675316
La Quinta Inn & Suites Dallas - Hutchins,"1000 Dowdy Ferry Rd,
Hutchins, TX 75141",1-214-269-1015,1-214-269-1016,-96.705499,32.649274
La Quinta Inn & Suites Dallas I-35 Walnut Hill Ln,"2421 Walnut Hill Lane,
Dallas, TX 75229",1-972-247-8530,1-972-247-8550,-96.896675,32.882208
La Quinta Inn & Suites Dallas - Las Colinas,"4225 North MacArthur Blvd,
Irving, TX 75038",1-972-261-4900,1-972-258-6330,-96.959806,32.865663
La Quinta Inn & Suites Dallas Love Field,"8300 John W. Carpenter Fwy.,
Dallas, TX 75247",1-214-414-9000,1-214-210-0157,-96.876888,32.822708
La Quinta Inn & Suites Dallas Mesquite,"118 East US Hwy 80,
Mesquite, TX 75149",1-972-216-7460,1-972-288-4430,-96.59466,32.78878
La Quinta Inn & Suites Dallas North Central,"10001 North Central Expressway,
Dallas, TX 75231-4103",1-214-361-8200,1-214-691-0482,-96.770662,32.883259
La Quinta Inn & Suites Dallas Northeast-Arboretum,"1310 Marketplace Dr.,
Garland, TX 75041",1-972-210-5331,NA,-96.647886,32.85924
La Quinta Inn & Suites Dallas Plano West,"4800 West Plano Pkwy,
Plano, TX 75093",1-972-599-0700,1-972-599-1361,-96.792346,33.015717
La Quinta Inn Dallas Uptown,"4440 North Central Expressway,
Dallas, TX 75206-6525",1-214-821-4220,1-214-821-7685,-96.786536,32.819817
La Quinta Inn & Suites Dalton,"715 College Dr,
Dalton, GA 30720",1-706-272-9099,1-706-272-9003,-85.002815,34.768674
La Quinta Inn & Suites Danbury,"116 Newtown Rd,
Danbury, CT 06810",1-203-798-1200,1-203-794-1542,-73.407007,41.415971
La Quinta Inn Davenport & Conference Center,"3330 East Kimberly Rd,
Davenport, IA 52807",1-563-359-3921,1-563-359-1912,-90.52328,41.55219
La Quinta Inn & Suites Davis,"1771 Research Park Dr,
Davis, CA 95618",1-530-758-2600,1-530-758-1771,-121.731177,38.540847
La Quinta Inn & Suites Dayton North - Tipp City,"19 Weller Dr,
Tipp City, OH 45371",1-937-667-1574,1-937-667-0298,-84.191801,39.962593
La Quinta Inn Daytona Beach/International Speedway,"2725 W. International Speedway Blvd,
Daytona Beach, FL 32114",1-386-255-7412,1-386-255-5350,-81.081998,29.173332
La Quinta Inn Decatur,"918 Beltline Rd Southwest,
Decatur, AL 35601",1-256-355-9977,1-256-353-4494,-87.002116,34.56093
La Quinta Inn & Suites Decatur,"1405 South Hwy 287,
Decatur, TX 76234",1-940-627-9603,1-940-627-9609,-97.58883,33.22082
La Quinta Inn & Suites Deer Park,"1400 East Blvd,
Deer Park, TX 77536",1-281-476-5300,1-281-476-9297,-95.099553,29.699042
La Quinta Inn Deerfield Beach I-95 at Hillsboro E,"351 West Hillsboro Blvd,
Deerfield Beach, FL 33441-1801",1-954-421-1004,1-954-427-8069,-80.109547,26.319618
La Quinta Inn & Suites Deerfield Beach I-95,"100 Southwest 12th Ave,
Deerfield Beach, FL 33442",1-954-428-0661,1-954-427-6701,-80.11924,26.31657
La Quinta Inn Del Rio,"2005 Veterans Blvd,
Del Rio, TX 78840",1-830-775-7591,1-830-774-0809,-100.905443,29.383947
La Quinta Inn & Suites Deming,"4300 East Pine St,
Deming, NM 88030",1-575-546-0600,1-575-544-8200,-107.71328,32.2716
La Quinta Inn & Suites Denison - North Lake Texoma,"801 US Highway 75 North,
Denison, TX 75020",1-903-464-0340,1-903-462-0612,-96.58695,33.76482
La Quinta Inn & Suites Denton - University Drive,"4465 North I-35,
Denton, TX 76207",1-940-808-0444,1-940-808-0437,-97.176624,33.236448
La Quinta Inn & Suites Denver Airport DIA,"6801 Tower Rd,
Denver, CO 80249-6327",1-303-371-0888,1-303-371-0807,-104.772169,39.820158
La Quinta Inn Denver Aurora,"1011 South Abilene St,
Aurora, CO 80012",1-303-337-0206,1-303-750-9738,-104.826631,39.69831
La Quinta Inn & Suites Denver Boulder - Louisville,"902 West Dillon Rd,
Louisville, CO 80027",1-303-664-0100,1-303-664-1100,-105.162113,39.958948
La Quinta Inn Denver Central,"3500 Park Ave West,
Denver, CO 80216-5126",1-303-458-1222,1-303-433-2246,-104.994244,39.766273
La Quinta Inn Denver Cherry Creek,"1975 South Colorado Blvd,
Denver, CO 80222-7902",1-303-758-8886,1-303-756-2711,-104.940977,39.680346
La Quinta Inn & Suites Denver Englewood Tech Ctr,"9009 East Arapahoe Rd,
Greenwood Village, CO 80112",1-303-799-4555,1-303-792-3377,-104.884464,39.596035
La Quinta Inn & Suites Denver Gateway Park,"4460 Peoria Street,
Denver, CO 80239",1-303-373-2525,1-303-371-3040,-104.845888,39.776908
La Quinta Inn Denver Golden,"3301 Youngfield Service Rd,
Golden, CO 80401",1-303-279-5565,1-303-279-5841,-105.144802,39.76366
La Quinta Inn Denver Northglenn,"345 West 120th Ave,
Westminster, CO 80234-2906",1-303-252-9800,1-303-452-9705,-104.991338,39.914681
La Quinta Inn & Suites Denver Southwest Lakewood,"7190 West Hampden Ave,
Lakewood, CO 80227",1-303-969-9700,1-303-969-9733,-105.076236,39.65237
La Quinta Inn & Suites Denver Tech Center,"7077 South Clinton St,
Greenwood Village, CO 80112",1-303-649-9969,1-303-649-9959,-104.878801,39.588303
La Quinta Inn Denver Westminster,"8701 Turnpike Dr,
Westminster, CO 80030",1-303-425-9099,1-303-427-5860,-105.051831,39.852979
La Quinta Inn & Suites Des Moines West Clive,"1390 Northwest 118th St,
Clive, IA 50325",1-515-221-9200,1-515-221-0800,-93.77979,41.602503
La Quinta Inn & Suites Dallas South-DeSoto,"641 North I-35 East,
DeSoto, TX 75115",1-972-920-0100,1-972-920-0111,-96.824712,32.601089
La Quinta Inn Detroit Canton,"41211 Ford Rd,
Canton, MI 48187",1-734-981-1808,1-734-981-7150,-83.446988,42.321593
La Quinta Inn & Suites Detroit Metro Airport,"30847 Flynn Dr,
Romulus, MI 48174",1-734-721-1100,1-734-721-9915,-83.341765,42.243165
La Quinta Inn Detroit Southgate,"12888 Reeck Rd,
Southgate, MI 48195",1-734-374-3000,1-734-374-3010,-83.226277,42.213395
La Quinta Inn & Suites Detroit Utica,"45311 Park Ave,
Utica, MI 48315",1-586-731-4700,1-586-731-9870,-83.010265,42.628264
La Quinta Inn & Suites DFW Airport South / Irving,"4105 West Airport Fwy,
Irving, TX 75062",1-972-252-6546,1-972-570-4225,-97.00747,32.837684
La Quinta Inn & Suites DFW Airport West - Bedford,"1809 Hwy 121,
Bedford, TX 76021",1-817-545-8105,1-817-545-8143,-97.122387,32.839528
La Quinta Inn & Suites DFW Airport West - Euless,"431 Airport Fwy,
Euless, TX 76040",1-817-836-4000,1-817-836-4001,-97.089123,32.836208
La Quinta Inn & Suites Dickinson,"552 12th Street West,
Dickinson, ND 58601",1-701-456-2500,1-701-456-2501,-102.79322,46.894962
La Quinta Inn & Suites Dodge City,"2400 West Wyatt Earp Blvd,
Dodge City, KS 67801",1-620-225-7373,1-620-225-0008,-100.047327,37.754532
La Quinta Inn & Suites Dothan,"3593 Ross Clark Circle,
Dothan, AL 36303",1-334-793-9090,1-334-793-4367,-85.426361,31.248682
La Quinta Inn & Suites Dublin - Pleasanton,"6275 Dublin Blvd,
Dublin, CA 94568",1-925-828-9393,1-925-828-9002,-121.907895,37.706195
La Quinta Inn & Suites Dublin,"101 Travel Center Blvd,
Dublin, GA 31021",1-478-272-3110,1-478-272-3189,-82.93876,32.48694
La Quinta Inn & Suites Duluth,"1805 Maple Grove Road,
Duluth, MN 55811",1-218-722-0700,1-218-722-0701,-92.164386,46.810138
La Quinta Inn & Suites Dumas,"1912 South Dumas Ave,
Dumas, TX 79029",1-806-934-5515,1-806-934-5528,-101.975216,35.842221
La Quinta Inn & Suites Durango,"125 Mercury Village Dr,
Durango, CO 81303",1-970-259-8400,1-970-256-0990,-107.869085,37.239903
La Quinta Inn & Suites Durant,"417 Criswell Blvd,
Durant, OK 74701",1-580-924-2200,1-580-924-2220,-96.405721,34.001634
La Quinta Inn & Suites University Area Chapel Hill,"4414 Durham Chapel Hill Blvd,
Durham, NC 27707",1-919-401-9660,1-919-401-9661,-78.972184,35.964604
La Quinta Inn & Suites Raleigh/Durham Southpoint,"1910 Westpark Dr,
Durham, NC 27713",1-919-484-1422,1-919-484-1423,-78.891445,35.907959
La Quinta Inn Eagle Pass,"2525 E. Main St,
Eagle Pass, TX 78852-4498",1-830-773-7000,1-830-773-8852,-100.475012,28.709991
La Quinta Inn & Suites Eastland,"10150 IH 20,
Eastland, TX 76448",1-254-629-1414,1-254-629-2235,-98.791702,32.4005
La Quinta Inn & Suites Edgewood / Aberdeen-South,"2112B Emmorton Park Rd,
Edgewood, MD 21040",1-410-676-6969,1-410-676-6979,-76.309775,39.453739
La Quinta Inn & Suites Edmond,"200 Meline Dr.,
Edmond, OK 73034",1-405-513-5353,1-405-513-5354,-97.4283,35.65176
La Quinta Inn & Suites Effingham,"1103 Avenue of Mid America,
Effingham, IL 62401",1-217-540-1111,1-217-347-7341,-88.560206,39.139006
La Quinta Inn El Dorado,"2303 Junction City Rd,
El Dorado, AR 71730",1-870-863-6677,1-870-864-0709,-92.640297,33.197247
La Quinta Inn El Paso - Airport,"6140 Gateway Blvd E,
El Paso, TX 79905-2004",1-915-778-9321,1-915-779-1505,-106.40824,31.780982
La Quinta Inn & Suites El Paso West Bartlett,"7620 North Mesa,
El Paso, TX 79912",1-915-585-2999,1-915-585-1667,-106.567476,31.838966
La Quinta Inn El Paso Cielo Vista,"9125 Gateway West,
El Paso, TX 79925",1-915-593-8400,1-915-599-1268,-106.366363,31.766203
La Quinta Inn & Suites El Paso East,"7944 Gateway East,
El Paso, TX 79915",1-915-591-3300,1-915-591-3700,-106.346905,31.751991
La Quinta Inn El Paso East Lomaland,"11033 Gateway Blvd West,
El Paso, TX 79935-5003",1-915-591-2244,1-915-592-9300,-106.333346,31.745869
La Quinta Inn El Paso West,"7550 Remcon Circle,
El Paso, TX 79912-3513",1-915-833-2522,1-915-581-9303,-106.567593,31.837635
La Quinta Inn & Suites Elizabethtown,"210 Commerce Dr,
Elizabethtown, KY 42701",1-270-765-4747,1-270-765-7448,-85.832856,37.709165
La Quinta Inn & Suites Elk City,"2611 E Hwy 66,
Elk City, OK 73644",1-580-303-4536,1-580-303-4543,-99.37393,35.422829
La Quinta Inn & Suites Elkview - Charleston NE,"101 Crossing Shopping Mall,
Elkview, WV 25071",1-304-965-9200,1-304-965-9201,-81.500492,38.456907
La Quinta Inn & Suites White Plains - Elmsford,"540 Saw Mill River Rd,
Elmsford, NY 10523",1-914-592-3300,1-914-592-3381,-73.817392,41.07352
La Quinta Inn & Suites Ely,"1591 Great Basin Blvd,
Ely, NV 89301",1-775-289-8833,1-775-289-8834,-114.87072,39.2466
La Quinta Inn & Suites Emporia,"2930 Eaglecrest Drive,
Emporia, KS 66801",1-620-342-4445,1-620-208-6072,-96.218974,38.421794
La Quinta Inn & Suites Enid,"4914 W. Owen K Garriott Rd,
Enid, OK 73703",1-580-233-7100,1-580-233-7101,-97.938471,36.391411
La Quinta Inn & Suites Ennis,"110 South Sonoma Trail,
Ennis, TX 75119",1-972-875-4000,1-972-875-4030,-96.614224,32.336097
La Quinta Inn & Suites Erie,"7820 Perry Hwy,
Erie, PA 16509",1-814-864-1812,1-814-864,-80.041027,42.070789
La Quinta Inn & Suites Eugene,"155 Day Island Rd,
Eugene, OR 97401",1-541-344-8335,1-541-485-1644,-123.080698,44.05829
La Quinta Inn & Suites Evansville,"8015 East Division St,
Evansville, IN 47715",1-812-471-3414,1-812-471-4186,-87.454931,37.978519
La Quinta Inn Everett,"12619 4th Ave West,
Everett, WA 98204",1-425-347-9099,1-425-348-3048,-122.23404,47.88329
La Quinta Inn & Suites Fairbanks Airport,"4920 Dale Rd,
Fairbanks, AK 99709",1-907-328-6300,1-907-328-0914,-147.865998,64.824256
La Quinta Inn & Suites Fairborn Wright-Patterson,"2540 University Blvd.,
Fairborn, OH 45324",1-937-490-2000,1-937-431-0660,-84.064157,39.774836
La Quinta Inn & Suites Fairfield - Napa Valley,"316 Pittman Road,
Fairfield, CA 94534",1-707-864-3797,1-707-864-3897,-122.127576,38.219468
La Quinta Inn & Suites Fairfield,"38 Two Bridges Rd,
Fairfield, NJ 07004",1-973-575-1742,1-973-575-9567,-74.2733,40.89288
La Quinta Inn & Suites Fairfield,"1010 West Commerce St,
Fairfield, TX 75840",1-903-389-7441,1-903-389-7443,-96.177374,31.726433
La Quinta Inn & Suites Far Rockaway - JFK Airport,"4317 Rockaway Beach Blvd.,
Far Rockaway, NY 11692",1-718-925-4300,1-718-925-4301,-73.775194,40.593548
La Quinta Inn & Suites Fargo,"2355 46th St South,
Fargo, ND 58104",1-701-499-2000,1-701-499-2001,-96.863968,46.842647
La Quinta Inn Farmington,"675 Scott Ave,
Farmington, NM 87401",1-505-327-4706,1-505-325-6583,-108.191533,36.729928
La Quinta Inn & Suites Fayetteville,"720 E. Millsap Rd,
Fayetteville, AR 72703",1-479-587-8600,1-479-439-4725,-94.147177,36.115165
La Quinta Inn & Suites Festus,"1001 Veterans Blvd,
Festus, MO 63028",1-636-638-1800,1-636-638-2303,-90.403732,38.214334
La Quinta Inn & Suites Flagstaff,"2015 South Beulah
Blvd,
Flagstaff, AZ 86001",1-928-556-8666,1-928-214-9140,-111.663615,35.180382
La Quinta Inn & Suites Florence,"2123 West Lucas Street,
Florence, SC 29501",1-843-629-1111,1-843-946-9956,-79.804776,34.234608
La Quinta Inn & Suites Floresville,"1910 10th Street,
Floresville, TX 78114",1-830-542-3077,1-830-393-6688,-98.145322,29.134948
La Quinta Inn & Suites Forsyth,"400 Russell Parkway,
Forsyth, GA 31029",1-478-885-2500,1-478-885-2600,-83.940985,33.044017
La Quinta Inn Fort Collins ,"3709 East Mulberry St,
Fort Collins, CO 80524",1-970-493,1-970-493,-105.008447,40.580898
La Quinta Inn & Suites Fort Lauderdale Tamarac,"5070 North State Rd 7,
Fort Lauderdale, FL 33319",1-954-484-6909,1-954-731-2374,-80.202869,26.188224
La Quinta Inn & Suites Fort Myers Airport,"9521 Market Pl Rd,
Fort Myers, FL 33912",1-239-466-0012,1-239-466-0485,-81.79743,26.54926
La Quinta Inn Fort Myers Central,"4850 South Cleveland Ave,
Fort Myers, FL 33907-1320",1-239-275-3300,1-239-275-6661,-81.8722,26.59
La Quinta Inn & Suites Fort Smith,"6700 Boston St,
Fort Smith, AR 72903",1-479-484-0303,1-479-484-0305,-94.359042,35.354308
La Quinta Inn Fort Stockton,"1537 North Hwy 285,
Fort Stockton, TX 79735-8635",1-432-336-9781,1-432-336-3634,-102.908379,30.898494
La Quinta Inn & Suites Fort Walton Beach,"3 Miracle Strip Pkwy SW,
Fort Walton Beach, FL 32548",1-850-244-1500,1-850-244-1525,-86.613645,30.404151
La Quinta Inn & Suites Fort Worth Eastchase,"8250 Anderson Blvd,
Fort Worth, TX 76120",1-682-237-7519,1-888-709-5989,-97.174065,32.761208
La Quinta Inn & Suites Fort Worth - Lake Worth,"5800 Quebec St,
Fort Worth, TX 76135",1-817-237-9300,1-817-237-9002,-97.424719,32.802729
La Quinta Inn & Suites Fort Worth NE Mall,"653 N.E. Loop 820,
Hurst, TX 76053",1-817-595-4442,1-817-595-4443,-97.207912,32.82124
La Quinta Inn & Suites Fort Worth North,"4700 North Fwy,
Fort Worth, TX 76137",1-817-222-2888,1-817-222-2229,-97.31149,32.826286
La Quinta Inn & Suites Fort Worth City View,"4900 Bryant Irvin Rd,
Fort Worth, TX 76132-3616",1-817-370-2700,1-817-370-2733,-97.416347,32.678391
La Quinta Inn & Suites Fort Worth West - I-30,"7310 Calmont Avenue,
Fort Worth, TX 76116",1-817-244-4777,1-817-244-4771,-97.442961,32.734523
La Quinta Inn & Suites Fowler,"190 N. 10th Street,
Fowler, CA 93625",1-559-834-6300,1-559-834-6344,-119.683948,36.627923
La Quinta Inn & Suites Frankfort,"2150 W Holiday Rd,
Frankfort, IN 46041",1-765-659-4400,1-765-659-4064,-86.545326,40.277811
La Quinta Inn & Suites Fredericksburg,"1465 East Main St,
Fredericksburg, TX 78624",1-830-990-2899,1-830-990-2944,-98.849192,30.253999
La Quinta Inn & Suites Fremont / Silicon Valley,"46200 Landing Pkwy,
Fremont, CA 94538-6463",1-510-445-0808,1-510-445-1818,-121.944883,37.488862
La Quinta Inn & Suites Fresno Northwest,"5077 North Cornelia Ave,
Fresno, CA 93722",1-559-275-3700,1-559-275-3272,-119.880572,36.809946
La Quinta Inn & Suites Fresno Riverpark,"330 East Fir Ave,
Fresno, CA 93720",1-559-449-0928,1-559-449-1869,-119.7833294999,36.8394719
La Quinta Inn Fresno Yosemite,"2926 Tulare,
Fresno, CA 93721-1440",1-559-442-1110,1-559-237-0415,-119.780076,36.740459
La Quinta Inn & Suites Fruita,"570 Raptor Rd,
Fruita, CO 81521",1-970-858-8850,1-970-858-8849,-108.739489,39.153285
La Quinta Inn & Suites Ft. Lauderdale Airport,"2620 North 26th Ave,
Hollywood, FL 33020",1-954-922-2295,1-954-922-2995,-80.160383,26.036387
La Quinta Inn & Suites Ft Lauderdale Cypress Creek,"999 West Cypress Creek Rd,
Fort Lauderdale, FL 33309",1-954-491-7666,1-954-491-7669,-80.157355,26.203442
La Quinta Inn Ft. Lauderdale Northeast,"5727 North Federal Hwy,
Fort Lauderdale, FL 33308",1-954-491-2500,1-954-491-7945,-80.11096,26.19822
La Quinta Inn & Suites Ft. Lauderdale Plantation,"8101 Peters Rd,
Plantation, FL 33324",1-954-476-6047,1-954-476-6547,-80.255596,26.106215
La Quinta Inn Ft. Lauderdale Tamarac East,"3800 West Commercial Blvd,
Fort Lauderdale, FL 33309",1-954-485-7900,1-954-733-5469,-80.200029,26.186181
La Quinta Inn & Suites Ft. Myers - Sanibel Gateway,"20091 Summerlin Rd,
Fort Myers, FL 33908",1-239-466-1200,1-239-466-3797,-81.968744,26.493299
La Quinta Inn & Suites Ft. Pierce,"2655 Crossroads Pkwy,
Fort Pierce, FL 34945",1-772-828-4199,1-772-828-4180,-80.396533,27.417443
La Quinta Inn & Suites Ft. Wayne,"2902 East Dupont Rd,
Fort Wayne, IN 46825",1-260-490-7950,1-260-490-8741,-85.105537,41.178818
"La Quinta Inn & Suites Ft. Worth - Forest Hill, TX","3346 Forest Hill Circle,
Ft. Worth, TX 76140",1-817-293-5800,1-817-293-5803,-97.27201,32.659996
La Quinta Inn & Suites Fultondale Birmingham North,"1207 Boots Blvd,
Fultondale, AL 35068",1-205-949-8700,1-205-949-8701,-86.800624,33.611033
La Quinta Inn Gainesville,"920 Northwest 69th Terrace,
Gainesville, FL 32605",1-352-332-6466,1-352-332-7074,-82.416679,29.661696
La Quinta Inn & Suites Gainesville,"4201 North I-35,
Gainesville, TX 76240",1-940-665-5700,1-940-668-2200,-97.15279,33.6741
La Quinta Inn & Suites Gallup,"3880 East Hwy 66,
Gallup, NM 87301",1-505-722-2233,1-505-722-2885,-108.665584,35.531371
La Quinta Inn Galveston East Beach,"1402 Seawall Blvd,
Galveston, TX 77550-8199",1-409-763-1224,1-409-765-8663,-94.77983,29.296808
La Quinta Inn & Suites Garden City,"821 Stewart Ave,
Garden City, NY 11530",1-516-705-9000,1-516-705,-73.603514,40.733909
La Quinta Inn & Suites Garland Harbor Point,"375 E. I-30,
Garland, TX 75043",1-469-429-3339,1-469-429-3349,-96.573204,32.849749
La Quinta Inn & Suites Gillette,"450 E Boxelder Rd,
Gillette, WY 82718",1-307-686-6000,1-307-686-6001,-105.498311,44.27636
La Quinta Inn & Suites Glen Rose,"101 West BO Gibbs Blvd,
Glen Rose, TX 76043",1-254-898-0679,1-254-898-0686,-97.757828,32.238341
La Quinta Inn & Suites Glendive,"1717 N Merrill Avenue,
Glendive, MT 59330",1-406-377-7300,1-406-377-7248,-104.69671,47.12243
La Quinta Inn & Suites Gonzales,"1631 Water Street,
Gonzales, TX 78629",1-830-519-4255,1-830-519-4522,-97.462424,29.51254
La Quinta Inn & Suites Gonzales,"2816 S. Cabelas,
Gonzales, LA 70737",1-225-644-4726,1-225-644-4729,-90.950388,30.207711
La Quinta Inn & Suites Goodlettsville - Nashville,"120 South Cartwright Court,
Goodlettsville, TN 37072",1-615-851-1891,1-615-851-4513,-86.705931,36.322419
La Quinta Inn & Suites Granbury,"880 Harbor Lakes Dr,
Granbury, TX 76048",1-817-573-2007,1-817-573-2310,-97.765955,32.435192
La Quinta Inn & Suites Grand Forks,"4051 Garden View Drive,
Grand Forks, ND 58201",1-701-757-3600,1-701-757-3601,-97.086338,47.912884
La Quinta Inn & Suites Grand Junction,"2761 Crossroads Blvd,
Grand Junction, CO 81506",1-970-241-2929,1-970-241-2999,-108.541096,39.114512
La Quinta Inn & Suites Grants Pass,"243 Northeast Morgan Ln,
Grants Pass, OR 97526",1-541-472-1808,1-541-476-4175,-123.319409,42.461893
La Quinta Inn & Suites Great Falls,"600 River Dr South,
Great Falls, MT 59405",1-406-761-2600,1-406-761-2267,-111.307029,47.499039
La Quinta Inn & Suites Greensboro,"1201 Lanada Rd,
Greensboro, NC 27407",1-336-316-0100,1-336-316-0190,-79.893456,36.053709
La Quinta Inn & Suites Greenville Haywood,"65 West Orchard Park Dr,
Greenville, SC 29615",1-864-233-8018,1-864-233-2038,-82.3380069,34.8582288
La Quinta Inn & Suites Greenwood,"1281 South Park Dr.,
Greenwood, IN 46143",1-317-865-0100,1-317-885-8376,-86.075996,39.615588
La Quinta Inn & Suites Columbus - Grove City,"3962 Jackpot Rd,
Grove City, OH 43123",1-614-539-6200,1-614-539-6211,-83.045397,39.881083
La Quinta Inn & Suites Gun Barrel City,"210 Heritage Pkwy,
Gun Barrel City, TX 75156",1-903-887-2517,1-903-887-1957,-96.141529,32.333514
La Quinta Inn & Suites Guthrie,"406 Heather Road,
Guthrie, OK 73044",1-405-293-6000,1-405-293-9401,-97.395373,35.881398
La Quinta Inn & Suites Hammond,"42126 Veterans Avenue,
Hammond, LA 70403",1-985-345-4742,1-985-345-4739,-90.455997,30.468844
La Quinta Inn & Suites Harrisburg Airport Hershey,"990 Eisenhower Blvd,
Harrisburg, PA 17111",1-717-939-8000,1-717-939-0500,-76.804667,40.238827
La Quinta Inn & Suites Harrisburg-Hershey,"265 N. Hershey Road,
Harrisburg, PA 17112",1-717-566-7666,1-717-566-7667,-76.713731,40.351908
La Quinta Inn & Suites Hartford – Bradley Airport,"64 Ella Grasso Turnpike,
Windsor Locks, CT 06096",1-860-623-3336,1-860-627-6641,-72.672796,41.919471
La Quinta Inn & Suites Hattiesburg - I-59,"109 Lundy Lane,
Hattiesburg, MS 39401",1-769-223-6000,1-769-223-6001,-89.349724,31.327722
La Quinta Inn & Suites Helena,"701 Washington Street,
Helena, MT 59601",1-406-449-4000,1-406-449-4522,-112.003261,46.591605
La Quinta Inn & Suites Henderson-Northeast Denver,"9041 Brighton Road,
Henderson, CO 80640",1-303-301-1050,1-303-301-1053,-104.91057,39.861104
La Quinta Inn & Suites Hesperia Victorville,"12000 Mariposa Rd,
Hesperia, CA 92345",1-760-949-9900,1-760-949-1151,-117.346028,34.468909
La Quinta Inn & Suites Hickory,"1607 Fairgrove Church Rd,
Conover, NC 28613",1-828-465-1100,1-828-465-3090,-81.261841,35.700266
La Quinta Inn & Suites Hillsboro,"1513 Old Brandon Rd,
Hillsboro, TX 76645",1-254-580-1300,1-254-580-1301,-97.098284,32.017628
La Quinta Inn & Suites Hinesville - Fort Stewart,"1740 E. Oglethorpe Hwy,
Hinesville, GA 31313",1-912-369-3000,1-912-369-3001,-81.567189,31.858523
La Quinta Inn & Suites Hobbs,"3312 North Lovington Hwy,
Hobbs, NM 88240",1-575-397-8777,1-575-391-8782,-103.157503,32.736833
La Quinta Inn & Suites Branson-Hollister,"291 Financial Dr,
Hollister, MO 65672",1-417-239-0066,1-417-334-6158,-93.232148,36.60644
La Quinta Inn & Suites Hopkinsville,"345 Griffin Bell Dr.,
Hopkinsville, KY 42240",1-270-632-6140,1-270-632-6141,-87.4758,36.824742
La Quinta Inn & Suites Horn Lake / Southaven Area,"721 Southwest Dr,
Horn Lake, MS 38637",1-662-510-6500,1-662-510-6501,-90.002269,34.961608
La Quinta Inn & Suites Hot Springs,"4253 Central Avenue,
Hot Springs, AR 71913",1-501-520-6400,1-501-520-4010,-93.07142,34.45217
La Quinta Inn & Suites Houma,"189 Synergy Center Blvd,
Houma, LA 70360",1-985-879-1646,1-985-879-1647,-90.76027,29.6295
La Quinta Inn & Suites Houston Baytown East,"5215 I-10 East,
Baytown, TX 77521",1-281-421-5566,1-281-421-4009,-94.97842,29.805595
La Quinta Inn & Suites Houston Bush IAH South,"15510 John F. Kennedy Blvd,
Houston, TX 77032",1-281-219-2000,1-281-219-2325,-95.331143,29.942766
La Quinta Inn & Suites Houston Bush Intl Airport E,"18201 Kenswick Dr,
Humble, TX 77338",1-281-446-1300,1-281-446-6229,-95.295983,29.984473
La Quinta Inn & Suites Houston Channelview,"5520 East Sam Houston Pkwy North,
Houston, TX 77015",1-281-452-4402,1-281-452-4419,-95.162637,29.800763
La Quinta Inn & Suites Houston West at Clay Road,"4424 Westway Park Blvd,
Houston, TX 77041",1-713-939-1400,1-713-939-1403,-95.559334,29.833162
La Quinta Inn Houston Cy-Fair,"13290 FM 1960 West,
Houston, TX 77065-4005",1-281-469-4018,1-281-955-6350,-95.618152,29.91685
La Quinta Inn & Suites Houston East at Normandy,"930 Normandy St,
Houston, TX 77015",1-713-451-0009,1-713-451-0091,-95.206672,29.773072
La Quinta Inn & Suites Houston Energy Corridor,"2451 Shadow View Lane,
Houston, TX 77077",1-281-668-1068,1-281-531-4818,-95.600832,29.737882
La Quinta Inn & Suites Houston Galleria Area,"1625 West Loop South,
Houston, TX 77027",1-713-355-3440,1-713-355-2990,-95.455077,29.750909
La Quinta Inn & Suites Houston Greenway Plaza Medical Area,"4015 Southwest Fwy,
Houston, TX 77027-7499",1-713-623-4750,1-713-963-0599,-95.442798,29.728421
La Quinta Inn & Suites Houston Hobby Airport,"8776 Airport Blvd,
Houston, TX 77061",1-713-490-1008,1-713-490-1009,-95.262145,29.653988
La Quinta Inn & Suites Houston I-45 North at 1960,"415 FM 1960,
Houston, TX 77073",1-281-784-1112,1-281-784-1117,-95.42332,30.02397
La Quinta Inn Houston La Porte,"1105 Hwy 146 South,
La Porte, TX 77571-6119",1-281-470-0760,1-281-471-2116,-95.029341,29.652135
La Quinta Inn & Suites Houston NASA Seabrook,"3636 NASA Rd 1,
Seabrook, TX 77586",1-281-326-7300,1-281-326-2840,-95.04571,29.564498
La Quinta Inn & Suites Houston North-Spring,"24868 I-45 North,
Spring, TX 77386",1-281-681-9188,1-281-681-9288,-95.440443,30.12399
La Quinta Inn & Suites Houston Northwest,"11130 Northwest Fwy,
Houston, TX 77092",1-713-680-8282,1-713-680-1887,-95.465559,29.818348
La Quinta Inn & Suites Houston NW Beltway8/WestRD,"9034 West Sam Houston Pkwy N,
Houston, TX 77064",1-281-671-6016,1-281-671-6021,-95.550816,29.903976
La Quinta Inn & Suites Houston Southwest,"6790 Southwest Fwy,
Houston, TX 77074",1-713-784-3838,1-713-784-3189,-95.503807,29.714147
La Quinta Inn & Suites Houston Stafford Sugarland,"12727 Southwest Fwy,
Stafford, TX 77477",1-281-240-2300,1-281-240-6677,-95.584424,29.634697
La Quinta Inn & Suites Houston West Park 10,"15225 Katy Fwy,
Houston, TX 77094",1-281-646-9200,1-281-646-9201,-95.651186,29.784262
La Quinta Inn & Suites Houston - Westchase,"10850 Harwin Dr,
Houston, TX 77072",1-281-495-7700,1-281-495-7733,-95.5584164,29.7172568
La Quinta Inn & Suites Houston Willowbrook,"8383 FM 1960 Rd W,
Houston, TX 77070",1-832-617-5757,1-281-477-3306,-95.550371,29.95721
La Quinta Inn & Suites Huntsville Airport Madison,"105 Westchester Rd,
Madison, AL 35758",1-256-258-2777,1-256-258-2778,-86.760246,34.67557
La Quinta Inn Huntsville Research Park,"4870 University Dr Northwest,
Huntsville, AL 35816-1847",1-256-830-2070,1-256-830-4412,-86.654157,34.737782
La Quinta Inn Huntsville,"124 I-45 North,
Huntsville, TX 77340",1-936-295-6454,1-936-295-9245,-95.57009,30.72013
La Quinta Inn & Suites I-20 Longview South,"3416 Martin Luther King Jr. Blvd,
Longview, TX 75602",1-903-238-9965,1-903-238-9913,-94.716599,32.450142
La Quinta Inn & Suites Idaho Falls,"2501 South 25th East,
Idaho Falls, ID 83406",1-208-552-2500,1-208-524-0025,-111.981996,43.475482
La Quinta Inn Indianapolis Airport Executive Drive,"2650 Executive Dr,
Indianapolis, IN 46241",1-317-244-8100,1-317-241-5136,-86.258276,39.727076
La Quinta Inn Indianapolis Airport Lynhurst,"5316 West Southern Ave,
Indianapolis, IN 46241-5510",1-317-247-4281,1-317-247-0576,-86.250875,39.728237
La Quinta Inn & Suites Indianapolis AP Plainfield,"2251 Manchester Drive,
Plainfield, IN 46168",1-317-279-2650,1-317-279-2659,-86.366833,39.673569
La Quinta Inn & Suites Indianapolis Downtown,"401 E. Washington Street,
Indianapolis, IN 46204",1-317-638-0327,1-317-203-4712,-86.150241,39.76692
La Quinta Inn Indianapolis East-Post Drive,"2349 Post Dr,
Indianapolis, IN 46219",1-317-897-2300,1-317-897-2266,-86.010772,39.801926
La Quinta Inn Indianapolis North at Pyramids,"3880 West 92nd St,
Indianapolis, IN 46268",1-317-872-3100,1-317-872-3154,-86.228111,39.919988
La Quinta Inn & Suites Indianapolis South,"5120 Victory Dr,
Indianapolis, IN 46203",1-317-783-7751,1-317-787-1545,-86.080358,39.701993
La Quinta Inn & Suites Inglewood,"3945 W Imperial Hwy,
Inglewood, CA 90303",1-310-680-3333,1-310-680-0334,-118.343289,33.931271
La Quinta Inn & Suites Iowa,"204 West Frontage Rd,
Iowa, LA 70647",1-337-582-2261,1-337-582-2263,-93.015651,30.251283
La Quinta Inn & Suites Irvine Spectrum,"14972 Sand Canyon Ave,
Irvine, CA 92618",1-949-551-0909,1-949-551-2945,-117.75964,33.675935
La Quinta Inn & Suites Islip MacArthur Airport,"10 Aero Rd,
Bohemia, NY 11716",1-631-881-7700,1-631-881-7740,-73.09548,40.77974
La Quinta Inn & Suites Jackson Airport,"501 South Pearson Rd,
Pearl, MS 39208",1-601-664-0065,1-601-664-9755,-90.1336,32.263526
La Quinta Inn & Suites Jackson North,"593 E. Beasley Road,
Jackson, MS 39206",1-601-956-8686,1-601-345-8449,-90.148583,32.385033
La Quinta Inn & Suites Jackson,"2370 N. Highland Ave,
Jackson, TN 38305",1-731-664-1800,1-731-664-5456,-88.828239,35.668846
La Quinta Inn & Suites Jacksonville Butler Blvd,"4686 Lenoir Ave South,
Jacksonville, FL 32216",1-904-296-0703,1-904-296-0709,-81.597755,30.248193
La Quinta Inn & Suites Jacksonville Mandarin,"3199 Hartley Rd,
Jacksonville, FL 32257",1-904-268-9999,1-904-268-9611,-81.628115,30.183811
La Quinta Inn & Suites Jacksonville,"1902 South Jackson St,
Jacksonville, TX 75766",1-903-586-6504,1-903-586-6503,-95.25418,31.941511
La Quinta Inn Costa Mesa Orange County,"1515 South Coast Dr,
Costa Mesa, CA 92626-1529",1-714-957-5841,1-714-432-7159,-117.920452,33.69137
La Quinta Inn & Suites Joplin,"3320 South Rangeline Rd,
Joplin, MO 64804",1-417-781-0500,1-417-781-9388,-94.478449,37.05306
La Quinta Inn & Suites Jourdanton,"110 BMT Dr,
Jourdanton, TX 78026",1-830-769-3050,1-830-769-3101,-98.532542,28.925651
La Quinta Inn Jupiter,"34 Fishermans Way,
Jupiter, FL 33477",1-561-575-7201,1-561-575-1169,-80.08641,26.93488
La Quinta Inn & Suites Kalispell,"255 Montclair Dr,
Kalispell, MT 59901",1-406-257-5255,1-406-257-7361,-114.292834,48.209704
La Quinta Inn & Suites Kansas City Airport,"6901 North West 83rd St,
Kansas City, MO 64152",1-816-587,1-816-587,-94.659977,39.244176
La Quinta Inn Kansas City Lenexa,"9461 Lenexa Dr,
Lenexa, KS 66215-3836",1-913-492-5500,1-913-492-2935,-94.730346,38.958204
La Quinta Inn Kansas City North,"2214 Taney St,
N. Kansas City, MO 64116",1-816-221-1200,1-816-471-6207,-94.558833,39.147033
La Quinta Inn & Suites Karnes City-Kenedy,"1025 S. State Hwy. 123,
Karnes City, TX 78118",1-830-780-3223,1-830-780-3272,-97.892806,28.870888
La Quinta Inn & Suites Houston Katy East,"22455 Katy Fwy,
Katy, TX 77450",1-281-392-9800,1-281-392-1818,-95.761667,29.784917
La Quinta Inn & Suites Kearney,"108 3rd Ave,
Kearney, NE 68845",1-308-237-4400,1-308-237-4888,-99.088679,40.672163
La Quinta Inn & Suites Kennesaw,"560 Greers Chapel Drive NW,
Kennesaw, GA 30144",1-770-514-7344,1-770-514-1689,-84.568255,34.00553
La Quinta Inn & Suites Kennewick,"2600 South Quillan Pl,
Kennewick, WA 99338",1-509-736-3656,1-509-736-3676,-119.176478,46.186018
La Quinta Inn & Suites Kerrville,"1940 Sidney Baker St,
Kerrville, TX 78028",1-830-896-9200,1-830-896-2422,-99.12034,30.065511
La Quinta Inn Killeen - Fort Hood,"1112 South Fort Hood St,
Killeen, TX 76541-7493",1-254-526-8331,1-254-526-0394,-97.74687,31.10988
La Quinta Inn & Suites Kingman,"3419 Hotel Way,
Kingman, AZ 86409",1-928-529-5070,1-928-529-5071,-114.038899,35.223372
La Quinta Inn & Suites Kingsland/Kings Bay Naval B,"104 May Creek Dr,
Kingsland, GA 31548",1-912-882-8010,1-912-882-8030,-81.663195,30.789723
La Quinta Inn & Suites Kingsport TriCities Airport,"10150 Airport Pkwy,
Kingsport, TN 37663",1-423-323-0500,1-423-323-0582,-82.431179,36.505221
La Quinta Inn & Suites Kingsville,"2151 S Hwy 77,
Kingsville, TX 78363",1-361-592-3000,1-361-592-3003,-97.844655,27.496837
La Quinta Inn & Suites Houston Kingwood Medical,"22790 Highway 59 N,
Kingwood, TX 77339",1-281-359-6611,1-281-359-7711,-95.252641,30.047295
La Quinta Inn & Suites Knoxville Airport,"126 Cusick Rd,
Alcoa, TN 37701-3126",1-865-984-9350,1-865-984-2823,-83.982284,35.811657
La Quinta Inn & Suites Knoxville Central Papermill,"1317 Kirby Road,
Knoxville, TN 37909",1-865-321-1840,1-865-321-1850,-83.999929,35.945744
La Quinta Inn & Suites Knoxville North I-75,"7534 Conner Rd,
Powell, TN 37849",1-865-947-7500,1-865-947-5444,-83.998219,36.051469
La Quinta Inn & Suites Knoxville East,"7210 Saddle Rack St,
Knoxville, TN 37914",1-865-633-5100,1-865-251-0570,-83.774636,35.999207
La Quinta Inn & Suites Kokomo,"511 Albany Dr.,
Kokomo, IN 46901",1-765-453-2222,1-765-453-4398,-86.124702,40.437956
La Quinta Inn & Suites Kyle - Austin South,"18869 IH-35 North,
Kyle, TX 78640",1-512-295-5599,1-512-295-9863,-97.847586,30.03152
La Quinta Inn & Suites La Verkin - Gateway to Zion,"101 E. 500 N.,
La Verkin
, UT 84745",1-435-635-3111,1-435-635-3112,-113.268244,37.211246
La Quinta Inn Lafayette North,"2100 Northeast Evangeline Thruway,
Lafayette, LA 70501",1-337-233-5610,1-337-235-2104,-92.013138,30.252072
La Quinta Inn & Suites Lafayette,"312 Meijer Drive,
Lafayette, IN 47905",1-765-446-2400,1-765-446-2401,-86.81547,40.413169
La Quinta Inn & Suites LaGrange / I-85,"111 Hoffman Drive,
LaGrange, GA 30241",1-706-812-8000,1-706-812-8208,-84.973645,33.039924
La Quinta Inn & Suites Lake Charles Casino Area,"1201 West Prien Lake Rd,
Lake Charles, LA 70601",1-337-478-9889,1-337-478-9891,-93.239084,30.197927
La Quinta Inn & Suites Lake Charles - Westlake,"1008 Sampson St.,
Westlake, LA 70669",1-337-660-2525,1-337-660-2526,-93.257205,30.246001
La Quinta Inn & Suites Page at Lake Powell,"70 Kaibab Road,
Page, AZ 86040",1-928-645-9898,1-928-645-0068,-111.476297,36.90552
La Quinta Inn & Suites Lakeland East,"4315 Lakeland Park Dr,
Lakeland, FL 33809",1-863-815-0606,1-863-815-9711,-81.953759,28.096903
La Quinta Inn & Suites Lakeland West,"1024 Lakeland Park Center Drive,
Lakeland, FL 33809",1-863-859-2866,1-863-859-2956,-81.971105,28.087763
La Quinta Inn & Suites Lancaster,"25 Eastbrook Road,
Ronks, PA 17572",1-717-392-8100,1-717-392-8105,-76.193115,40.023761
La Quinta Inn & Suites Laredo Airport,"7220 Bob Bullock Loop,
Laredo, TX 78041",1-956-724-7222,001-956-722-7121,-99.444551,27.561029
La Quinta Inn Laredo I-35,"3610 Santa Ursula Ave,
Laredo, TX 78041-4453",1-956-722-0511,1-956-723-6642,-99.50325,27.532
La Quinta Inn Las Cruces Mesilla Valley,"790 Avenida de Mesilla,
Las Cruces, NM 88005",1-575-524-0331,1-575-525-8360,-106.788165,32.292339
La Quinta Inn & Suites Las Cruces Organ Mountain,"1500 Hickory Dr,
Las Cruces, NM 88005",1-575-523-0100,1-575-523-0707,-106.787281,32.290597
La Quinta Inn & Suites Las Vegas Airport N Conv.,"3970 Paradise Rd,
Las Vegas, NV 89169",1-702-796-9000,1-702-796-3537,-115.1547,36.116843
La Quinta Inn & Suites Las Vegas Airport South,"6560 Surrey St,
Las Vegas, NV 89119",1-702-492-8900,1-702-492-2424,-115.123732,36.070515
La Quinta Inn Las Vegas Nellis ,"4288 North Nellis Blvd,
Las Vegas, NV 89115",1-702-632-0229,1-702-643-2598,-115.061918,36.238003
La Quinta Inn & Suites Las Vegas RedRock/Summerlin,"9570 W. Sahara Ave,
Las Vegas, NV 89117",1-702-243-0356,1-702-233-8023,-115.303194,36.145679
La Quinta Inn & Suites Las Vegas Summerlin Tech,"7101 Cascade Valley Ct,
Las Vegas, NV 89128-0455",1-702-360-1200,1-702-360-1222,-115.247738,36.211531
La Quinta Inn & Suites Las Vegas Tropicana,"4975 S. Valley View Blvd,
Las Vegas, NV 89118",1-702-798-7736,1-702-798-5951,-115.190281,36.100521
La Quinta Inn & Suites Latham Albany Airport,"833 New Loudon Rd,
Latham, NY 12110",1-518-640-2200,1-518-640-2215,-73.75967,42.7511
La Quinta Inn & Suites Lawton / Fort Sill,"1408 North West 40th ST,
Lawton, OK 73505",1-580-355-6800,1-580-355-6802,-98.443393,34.624755
La Quinta Inn & Suites LAX,"5249 West Century Blvd,
Los Angeles, CA 90045",1-310-645-2200,1-310-641-8214,-118.37272,33.94562
La Quinta Inn & Suites Lebanon,"140 Dixie Avenue,
Lebanon, TN 37090",1-615-470-1001,1-615-453-9508,-86.301809,36.18129
La Quinta Inn & Suites Leesville Ft. Polk,"1308 Entrance Road,
Leesville, LA 71446",1-337-537-8200,1-337-537-8400,-93.237992,31.053792
La Quinta Inn & Suites Lexington Park - Patuxent,"22769 Three Notch Rd,
California, MD 20619",1-301-862,1-301-862,-76.496884,38.292624000000004
La Quinta Inn & Suites Lexington South / Hamburg,"100 Canebrake Dr,
Lexington, KY 40509",1-859-543-1877,1-859-543-9488,-84.385144,37.960743
La Quinta Inn Lexington,"1920 Stanton Way,
Lexington, KY 40511-1350",1-859-231-7551,1-859-281-6002,-84.481587,38.100612
La Quinta Inn Lincoln,"4433 North 27th St,
Lincoln, NE 68521",1-402-476-2222,1-402-476-2618,-96.683443,40.855042
La Quinta Inn & Suites Lindale,"204 West Centennial Blvd,
Lindale, TX 75771",1-903-882-1600,1-903-882-1602,-95.394899,32.474297
La Quinta Inn & Suites Downtown Conference Center,"617 South Broadway,
Little Rock, AR 72201",1-501-374-9000,1-501-374-9009,-92.27588,34.74349
La Quinta Inn & Suites N Little Rock - McCain Mall,"4311 Warden Rd,
North Little Rock, AR 72116",1-501-945-0808,1-501-945-0393,-92.220752,34.795032
La Quinta Inn & Suites Little Rock - West,"9 Crossings Court,
Little Rock, AR 72205",1-501-251-6100,1-501-251-6101,-92.398227,34.726675
La Quinta Inn & Suites Little Rock - Bryant,"408 West Commerce Dr,
Bryant, AR 72022",1-501-847-9494,1-501-847-9496,-92.500573,34.620835
La Quinta Inn Livermore,"7700 Southfront Rd,
Livermore, CA 94551",1-925-373-9600,1-925-373-9601,-121.7006,37.71517
La Quinta Inn & Suites Livingston,"402 Hwy 59 Loop South,
Livingston, TX 77351",1-936-328-5299,1-936-328-5298,-94.95272,30.703468
La Quinta Inn & Suites Locust Grove,"4832 Bill Gardner Pkwy,
Locust Grove, GA 30248",1-678-583-8088,1-678-583-0760,-84.123613,33.353328
La Quinta Inn & Suites Logan,"853 S Hwy 89/91,
Logan, UT 84321",1-435-752-0707,1-435-787-2207,-111.83615,41.7165
La Quinta Inn & Suites Longview North,"908 East Hawkins Pkwy,
Longview, TX 75605",1-903-663-6611,1-903-663-6615,-94.732051,32.546855
La Quinta Inn & Suites Los Banos,"20 W Pacheco Blvd,
Los Banos, CA 93635",1-209-827-4677,1-209-827-9987,-120.854114,37.057219
La Quinta Inn & Suites Loudon,"12400 Hwy 72 N,
Loudon, TN 37774",1-865-657-0050,1-865-657-0060,-84.389969,35.732989
La Quinta Inn & Suites Louisville Airport & Expo,"4125 Preston Hwy.,
Louisville, KY 40213",1-502-368-0007,1-502-375-1617,-85.727949,38.192585
La Quinta Inn & Suites Louisville,"1501 Alliant Ave,
Louisville, KY 40299",1-502-267-8889,1-502-267-5831,-85.536232,38.220454
La Quinta Inn & Suites Loveland,"1450 Cascade Ave,
Loveland, CO 80538",1-970-622,1-970-622-8603,-105.130411,40.408029
LQ Hotel by La Quinta Monterrey Aeropuerto,"Blvd. Aeropuerto 4001, Parque Industrial Interamerican
Apodaca, NL 66600",52-812-2701800,52-812-270-1800,-100.1405,25.78875
La Quinta Inn Lubbock - Downtown Civic Center,"601 Ave Q,
Lubbock, TX 79401-2613",1-806-763-9441,1-806-747-9325,-101.855234,33.589956
La Quinta Inn & Suites Lubbock North,"5006 Auburn St,
Lubbock, TX 79416",1-806-749-1600,1-806-749-1605,-101.91894,33.60156
La Quinta Inn & Suites Lubbock South,"6504 I-27 South,
Lubbock, TX 79412",1-806-776-9100,1-806-776-9101,-101.845508,33.535596
La Quinta Inn & Suites Lubbock West Medical Center,"4115 Marsha Sharp Fwy,
Lubbock, TX 79407",1-806-792-0065,1-806-792-0178,-101.902077,33.575905
La Quinta Inn Lufkin,"2119 S. 1st St,
Lufkin, TX 75901-5902",1-936-634-3351,1-936-634-9475,-94.725596,31.305239
La Quinta Inn & Suites Luling,"203 E HWY 90,
Luling, TX 78648",1-830-351-5320,1-830-351-5321,-97.591238,29.655479
La Quinta Inn & Suites Lumberton,"104 N. LHS Dr,
Lumberton, TX 77657",1-409-751-3999,1-409-751-3998,-94.218101,30.259229
La Quinta Inn & Suites Lynchburg at Liberty Univ.,"3320 Candlers Mountain Road,
Lynchburg, VA 24502",1-434-847-8655,1-434-485-0005,-79.175326,37.368325
La Quinta Inn Lynnwood,"4300 Alderwood Mall Blvd,
Lynnwood, WA 98036",1-425-775-7447,1-425-775-8063,-122.29134,47.81724
La Quinta Inn & Suites Macon West,"4615 Chambers Rd,
Macon, GA 31206",1-478-788-6226,1-478-238-6279,-83.72213,32.807188
La Quinta Inn & Suites Macon,"3944 River Pl Dr,
Macon, GA 31210",1-478-475-0206,1-478-475-8577,-83.68522,32.904598
La Quinta Inn & Suites Madison American Center,"5217 East Terrace Dr,
Madison, WI 53718",1-608-245-0123,1-608-245-1644,-89.291393,43.14345
La Quinta Inn & Suites Manassas,"6950 Nova Way,
Manassas, VA 20109",1-703-393-9966,1-703-393-9967,-77.519177,38.805862
La Quinta Inn & Suites Manchester,"21 Front Street,
Manchester, NH 03102",1-603-669-5400,1-603-669-5470,-71.472708,43.003713
La Quinta Inn & Suites Manhattan,"17 West 32nd St,
New York, NY 10001",1-212-736-1600,1-212-563-4007,-73.98662,40.7477
La Quinta Inn & Suites Mansfield,"120 Stander Ave,
Mansfield, OH 44903",1-419-774-0005,1-419-774-9066,-82.510474,40.694316
La Quinta Inn & Suites Mansfield,"1503 Breckenridge Rd,
Mansfield, TX 76063",1-817-453-5040,1-817-453-6459,-97.141044,32.593238
La Quinta Inn & Suites Manteca - Ripon,"1524 Colony Rd,
Ripon, CA 95366",1-209-599-8999,1-209-599-8998,-121.141615,37.753437
La Quinta Inn & Suites Marble Falls,"501 Hwy 2147 West,
Marble Falls, TX 78654",1-830-798-2020,1-830-798-2121,-98.277211,30.561051
La Quinta Inn & Suites Marshall,"6015 East End Blvd South,
Marshall, TX 75672",1-903-934-3080,1-903-935-4230,-94.360425,32.48638
La Quinta Inn & Suites Mathis,"12909 I H 37,
Mathis, TX 78368",1-361-547-0200,1-361-547-0206,-97.817867,28.11077
La Quinta Inn & Suites McAlester,"1137 S. George Nigh Expressway,
McAlester, OK 74501",1-918-423-4400,1-918-423-1115,-95.755517,34.899402
La Quinta Inn & Suites McAllen Convention Center,"801 S. Ware Rd,
McAllen, TX 78501",1-956-682-6765,1-956-688-6785,-98.26219,26.198981
La Quinta Inn & Suites McAllen La Plaza Mall,"1120 South 10th Street,
McAllen, TX 78501",1-956-688-6764,1-956-688-6091,-98.233374,26.19321
La Quinta Inn & Suites McDonough,"100 Mill Road,
McDonough, GA 30253",1-678-782-6559,1-678-782-6560,-84.214967,33.459534
La Quinta Inn & Suites McKinney,"6501 Henneman Way,
McKinney, TX 75070",1-972-908-2370,1-972-908-2371,-96.699718,33.138989
La Quinta Inn & Suites Mechanicsburg - Harrisburg,"350 Bent Creek Blvd.,
Mechanicsburg, PA 17050",1-717-790-1520,1-717-790-4516,-77.030107,40.253855
LQ Hotel by La Quinta Medellin ,"Carrera 38 # 26-13, Avenida las Palmas, con Loma de San Julian El Poblado
Medellin, Colombia, ANT 050016",57-4-6045188,57-4-6045188,-75.565508,6.224831
La Quinta Inn & Suites Melbourne - Palm Bay,"4510 West New Haven Avenue,
Melbourne, FL 32904",1-321-724-2050,1-321-724-9882,-80.7018781,28.0793446
La Quinta Inn & Suites Melbourne Viera,"7200 George T. Edwards Dr,
Melbourne, FL 32940",1-321-242-9400,1-321-242-9440,-80.721638,28.231545
La Quinta Inn & Suites Memphis Airport Graceland,"2979 Millbranch Rd,
Memphis, TN 38116",1-901-791-9200,1-901-345-8895,-90.006865,35.067586
La Quinta Inn & Suites Memphis East-Sycamore View,"6069 Macon Cove,
Memphis, TN 38134-7600",1-901-381-0044,1-901-381-1450,-89.861583,35.162763
La Quinta Inn & Suites Memphis Primacy Parkway,"1236 Primacy Pkwy,
Memphis, TN 38119",1-901-374-0330,1-901-374-0930,-89.862297,35.097984
La Quinta Inn & Suites Memphis Wolfchase,"2839 New Brunswick Rd,
Memphis, TN 38133",1-901-377-2772,1-901-377-2771,-89.781503,35.200804
La Quinta Inn & Suites Memphis Downtown,"310 Union Avenue,
Memphis, TN 38103",1-901-522-2383,1-901-522-2833,-90.046275,35.141925
La Quinta Inn & Suites Mercedes,"7007 East Expressway 83,
Mercedes, TX 78570",1-956-565-0505,1-956-565-0525,-97.880405,26.159916
La Quinta Inn & Suites Meridian / Boise West,"800 S Allen Street,
Meridian, ID 83642",1-208-288-2100,1-208-898-9436,-116.356609,43.597644
La Quinta Inn & Suites Meridian,"1400 Roebuck Dr,
Meridian, MS 39301",1-601-693-2300,1-601-485-2534,-88.69152,32.35028
La Quinta Inn Merrillville,"8210 Louisiana St,
Merrillville, IN 46410-6354",1-219-738-2870,1-219-738-1858,-87.31998,41.469543
La Quinta Inn & Suites Mesa Superstition Springs,"6530 East Superstition Springs Blvd,
Mesa, AZ 85206",1-480-654-1970,1-480-654-1973,-111.69214,33.385823
La Quinta Inn & Suites Miami Airport East,"3501 NW 42nd Ave,
Miami, FL 33142",1-305-871-1777,1-305-871-8080,-80.264012,25.806535
La Quinta Inn Miami Airport North,"7401 North West 36th St,
Miami, FL 33166",1-305-599-9902,1-305-594-0552,-80.316887,25.809667
La Quinta Inn & Suites Miami Airport West,"8730 North West 27th St,
Miami, FL 33172",1-305-436-0830,1-305-436-0840,-80.33896,25.79953
La Quinta Inn & Suites Miami Cutler Bay,"10821 Caribbean Blvd,
Cutler Bay, FL 33189",1-305-278-0001,1-305-278-0222,-80.366235,25.579371
La Quinta Inn & Suites Miami Lakes,"7925 North West 154th St,
Miami Lakes, FL 33016",1-305-821-8274,1-305-828-2257,-80.329257,25.913452
La Quinta Inn & Suites Midland North,"2606 North Loop 250 West,
Midland, TX 79707",1-432-694-1200,1-432-694-1206,-102.155281,32.006762
La Quinta Inn Midland,"4130 West Wall St,
Midland, TX 79703-7718",1-432-697-9900,1-432-689-0617,-102.122161,31.971819
La Quinta Inn Boston - Milford,"24 Beaver St,
Milford, MA 01757",1-508-478-8243,1-508-634-9936,-71.486406,42.148936
La Quinta Inn & Suites Milledgeville,"1839 N Columbia Street,
Milledgeville, GA 31061",1-478-454-9000,1-478-454-9001,-83.248516,33.104168
La Quinta Inn Milwaukee Airport / Oak Creek,"7141 South 13th St,
Oak Creek, WI 53154",1-414-762-2266,1-414-762-0513,-87.931743,42.914898
La Quinta Inn & Suites Milwaukee Bayshore Area,"5423 North Port Washington Rd,
Glendale, WI 53217",1-414-962-6767,1-414-962-8811,-87.917059,43.115378
La Quinta Inn & Suites Milwaukee Delafield,"2801 Hillside Dr,
Delafield, WI 53018",1-262-395-1162,1-262-646-7660,-88.371977,43.047779
La Quinta Inn Milwaukee Glendale Hampton Ave,"5110 North Port Washington Rd,
Glendale, WI 53217",1-414-964-8484,1-414-964-2110,-87.916214,43.109647
La Quinta Inn & Suites Milwaukee SW New Berlin,"15300 West Rock Ridge Rd,
New Berlin, WI 53151",1-262-717-0900,1-262-717-0905,-88.10518,42.95197
La Quinta Inn Milwaukee West Brookfield,"20391 West Bluemound Rd,
Brookfield, WI 53045-5961",1-262-782-9100,1-262-782-8560,-88.165616,43.034957
La Quinta Inn Minneapolis Airport Bloomington,"7815 Nicollet Ave South,
Bloomington, MN 55420",1-952-881-7311,1-952-881-0604,-93.276393,44.860576
La Quinta Inn & Suites Minneapolis Bloomington W,"5151 American Blvd West,
Bloomington, MN 55437",1-952-830-1300,1-952-830-1535,-93.347332,44.855762
La Quinta Inn & Suites Minneapolis-Minnetonka,"10420 Wayzata Blvd,
Minnetonka, MN 55305",1-952-541-1094,1-952-541-1905,-93.411282,44.973954
La Quinta Inn & Suites Minneapolis Northwest,"7011 Northland Circle,
Brooklyn Park, MN 55428",1-763-971-8000,1-763-432-7187,-93.390783,45.08183
La Quinta Inn & Suites Minot,"1605 35th Avenue S. W.,
Minot, ND 58701",1-701-837-7900,1-701-837-7901,-101.319525,48.198925
La Quinta Inn & Suites Mission at West McAllen,"805 Travis St,
Mission, TX 78572",1-956-581-7772,1-956-580-2288,-98.306448,26.196839
La Quinta Inn Missoula,"5059 North Reserve St,
Missoula, MT 59808",1-406-549-9000,1-406-549-9014,-114.034784,46.911731
La Quinta Inn & Suites Moab,"815 South Main St,
Moab, UT 84532",1-435-259-8700,1-435-259-8601,-109.547306,38.561476
La Quinta Inn & Suites Mobile - Daphne,"8946 Sawwood St,
Daphne, AL 36527",1-251-338-6555,1-251-338-6556,-87.854061,30.666209
La Quinta Inn & Suites Mobile Satsuma / Saraland,"6104
Hwy 43,
Satsuma, AL 36572",1-251-675-5977,1-251-679-1646,-88.048151,30.870832
La Quinta Inn & Suites Mobile - Tillman's Corner,"5170 Motel Ct,
Mobile, AL 36619",1-251-661-9978,1-251-338-8907,-88.167569,30.584474
La Quinta Inn Mobile,"816 West I-65 Service Rd South,
Mobile, AL 36609-1302",1-251-343-4051,1-251-343-2897,-88.12949,30.67519
La Quinta Inn & Suites Modesto Salida,"4909 Sisk Rd,
Salida, CA 95368",1-209-579-8723,1-209-543-9050,-121.07822,37.70964
La Quinta Inn Moline Airport,"5450 27th St,
Moline, IL 61265",1-309-762-9008,1-309-762-2455,-90.499052,41.456445
La Quinta Inn & Suites Monahans,"1314 West I-20,
Monahans, TX 79756",1-432-943-5800,1-432-943-2898,-102.907087,31.571786
LQ Hotel by La Quinta Monterrey Centro,"AV. PINO SUAREZ No. 1001, Col. Centro
Monterrey, NL 64000",52-818-15,52-818-15,-100.320107,25.666541
LQ Hotel by La Quinta Monterrey Norte,"Av. Fidel Velazquez #3000 Col. Central,
Monterrey, NL 64190",52-812-12,52-812-1271001,-100.337696,25.720653
La Quinta Inn & Suites Moreno Valley,"23090 Sunnymead Blvd,
Moreno Valley, CA 92553",1-951-486-9000,1-951-486-9001,-117.2598,33.939646
La Quinta Inn & Suites Morgan City,"2018 Allison St,
Morgan City, LA 70380",1-985-300-0200,1-985-300,-91.18171,29.69577
La Quinta Inn & Suites Morgan Hill-San Jose South,"17043 Condit Rd.,
Morgan Hill, CA 95037",1-669-888-3700,1-669-888-3701,-121.633076,37.133845
La Quinta Inn & Suites Morgantown,"5000 Gateway Drive,
Morgantown, WV 26501",1-304-241-4501,1-304-599-5188,-80.013616,39.656936
La Quinta Inn & Suites Moscow Pullman,"185 Warbonnet Dr,
Moscow, ID 83843",1-208-882-5365,1-208-882-5374,-117.037499,46.733864
La Quinta Inn Moss Point - Pascagoula,"7001 Hwy 63 North,
Moss Point, MS 39563",1-228-474-4488,1-228-474-4776,-88.530419,30.442917
La Quinta Inn & Suites Mt. Laurel - Philadelphia,"5000 Clover Road,
Mount Laurel, NJ 08054",1-856-235-7500,1-856-235-7550,-74.956402,39.926469
La Quinta Inn & Suites Mt. Pleasant,"1620 Rotan Ave,
Mt. Pleasant, TX 75455",1-903-572-5514,1-903-572-5516,-95.002912,33.172034
La Quinta Inn & Suites Muskogee,"1701 North 32nd Street,
Muskogee, OK 74401",1-918-913-9541,1-918-913-9545,-95.402952,35.766159
La Quinta Inn & Suites Myrtle Beach - N. Kings Hwy,"4709 North Kings Hwy,
Myrtle Beach, SC 29577",1-843-449-5231,1-843-213-0151,-78.84848,33.723061
La Quinta Inn & Suites Myrtle Beach Broadway Area,"1561 21st Ave North,
Myrtle Beach, SC 29577",1-843-916-8801,1-843-916-8701,-78.888858,33.714726
La Quinta Inn & Suites Naples Downtown,"1555 5th Ave South,
Naples, FL 34102",1-239-793-4646,1-239-793-5248,-81.78349,26.13932
La Quinta Inn & Suites Naples East (I-75),"185 Bedzel Circle,
Naples, FL 34104",1-239-352-8400,1-239-352-8401,-81.687641,26.15669
La Quinta Inn & Suites Nashville Airport/Opryland,"2345 Atrium Way,
Nashville, TN 37214",1-615-885-3000,1-615-889-9131,-86.691236,36.155521
La Quinta Inn & Suites Nashville Airport,"531 Donelson Pike,
Nashville, TN 37214",1-615-885-3100,1-615-871-4238,-86.666299,36.146574
La Quinta Inn & Suites Nashville Franklin,"4207 Franklin Commons Ct,
Franklin, TN 37067",1-615-791-7700,1-615-790-9002,-86.823339,35.91155
La Quinta Inn Nashville South,"4311 Sidco Dr,
Nashville, TN 37204-4509",1-615-834-6900,1-615-333-3163,-86.761976,36.08397
La Quinta Inn & Suites NE Long Beach/Cypress,"12441 Carson St,
Hawaiian Gardens, CA 90716",1-562-860-2500,1-562-865-0500,-118.066337,33.832073
La Quinta Inn & Suites New Braunfels,"365 Hwy 46 South,
New Braunfels, TX 78130",1-830-627-3333,1-830-627-3336,-98.09222,29.699459
La Quinta Inn & Suites Houston New Caney,"22025 US 59,
New Caney, TX 77357-8257",1-281-354-1904,1-281-354-2795,-95.2280169,30.1274498
La Quinta Inn & Suites New Cumberland - Harrisburg,"130 Limekiln Rd.,
New Cumberland, PA 17070",1-800-753-3757,1-717-774-7717,-76.878702,40.214756
La Quinta Inn & Suites New Haven,"400 Sargent Dr,
New Haven, CT 06511",1-203-562-1111,1-203-865-7440,-72.919961,41.294035
La Quinta Inn & Suites New Iberia,"611A Queen City Dr,
New Iberia, LA 70560",1-337-321-6000,1-337-321-6007,-91.856625,29.986721
La Quinta Inn & Suites New Orleans Airport,"2610 Williams Blvd,
Kenner, LA 70062",1-504-466-1401,1-504-466-0319,-90.240542,30.004417
La Quinta Inn New Orleans Causeway,"3100 I-10 Service Rd,
Metairie, LA 70001-2014",1-504-835-8511,1-504-837-3383,-90.154904,29.994746
La Quinta Inn & Suites New Orleans Downtown,"301 Camp St,
New Orleans, LA 70130",1-504-598-9977,1-504-598-9978,-90.068979,29.950859
La Quinta Inn New Orleans Slidell,"794 East I-10 Service Rd,
Slidell, LA 70461",1-985-643-9770,1-985-641-4476,-89.749417,30.28251
La Quinta Inn New Orleans Veterans / Metairie,"5900 Veterans Memorial Blvd,
Metairie, LA 70003-1738",1-504-456-0003,1-504-885-0863,-90.205791,30.005699
La Quinta Inn New Orleans West Bank / Gretna,"50 Terry Pkwy,
Gretna, LA 70056-2564",1-504-368-5600,1-504-362-7430,-90.039192,29.924645
La Quinta Inn & Suites New York City Central Park,"31 West 71st Street,
New York, NY 10023",1-212-721-4770,1-212-579-8544,-73.977703,40.776155
La Quinta Inn & Suites Newark - Elkton,"304 Belle Hill Road,
Elkton, MD 21921",1-410-620-9494,1-410-620-9445,-75.803766,39.637612
La Quinta Inn & Suites Newport,"45 Southeast 32nd St,
Newport, OR 97365",1-541-867-7727,1-541-867-7728,-124.049293,44.615026
La Quinta Inn & Suites Niagara Falls,"6225 Niagara Falls Blvd,
Niagara Falls, NY 14304",1-716-236-0600,1-716-236-0100,-78.99289,43.089578
La Quinta Inn & Suites Norfolk Airport,"1387 North Military Hwy,
Norfolk, VA 23502",1-757-466-7001,1-757-466-7004,-76.210997,36.871778
La Quinta Inn Norfolk Virginia Beach,"192 Newtown Rd,
Virginia Beach, VA 23462-2401",1-757-497-6620,1-757-456-9780,-76.184553,36.843641
La Quinta Inn North Myrtle Beach,"1601B Hwy 17 North,
North Myrtle Beach, SC 29582",1-843-280-4555,1-843-663-0845,-78.65873,33.84463
La Quinta Inn & Suites North Platte,"2600 Eagles Wings Pl,
North Platte, NE 69101",1-308-534-0700,1-308-534-7781,-100.726731,41.108469
La Quinta Inn & Suites NW Tucson Marana,"6020 West Hospitality Rd,
Tucson, AZ 85743",1-520-572-4235,1-520-572-2175,-111.093134,32.358763
"La Quinta Inn & Suites O'Fallon, IL - St. Louis","136 Regency Park,
OFallon, IL 62269",1-618-726-2323,1-618-726-2324,-89.938709,38.588545
La Quinta Inn & Suites Oakland Airport Coliseum,"8465 Enterprise Way,
Oakland, CA 94621",1-510-632-8900,1-510-632-4713,-122.193325,37.742507
La Quinta Inn & Suites Oakland - Hayward,"20777 Hesperian Blvd,
Hayward, CA 94541",1-510-732-6300,1-510-783-2265,-122.11782,37.664537
La Quinta Inn & Suites Ocala,"3530 SW 36th Ave,
Ocala, FL 34474",1-352-861-1137,1-352-861-1157,-82.182844,29.150842
La Quinta Inn & Suites Ocean City,"106 32nd Street,
Ocean City, MD 21842",1-410-289-5762,1-410-289-0488,-75.072791,38.361378
La Quinta Inn & Suites Oceanfront Daytona Beach,"816 North Atlantic Ave,
Daytona Beach, FL 32118",1-386-944-0060,1-386-944-0070,-81.014023,29.239315
La Quinta Inn & Suites Odessa North - Sienna Tower,"4118 Faudree Rd,
Odessa, TX 79765",1-432-288-9026,1-432-296-4311,-102.288743,31.917617
La Quinta Inn & Suites Odessa North,"4122 Faudree Road,
Odessa, TX 79765",1-432-288-9041,1-432-563-6279,-102.288553,31.918492
La Quinta Inn Odessa,"5001 East Bus. I-20,
Odessa, TX 79761-3510",1-432-333-2820,1-432-333-4208,-102.312935,31.873196
La Quinta Inn & Suites OKC North - Quail Springs,"3003 West Memorial Rd,
Oklahoma City, OK 73134",1-405-755-7000,1-405-755-7008,-97.570143,35.610715
La Quinta Inn & Suites Oklahoma City Airport,"808 S. Meridian Ave.,
Oklahoma City, OK 73108",1-405-702-7720,1-405-702-7730,-97.600556,35.458611
La Quinta Inn & Suites Midwest City - Tinker AFB,"5653 Tinker Diagonal,
Midwest City, OK 73110",1-405-733-1339,1-405-732-6550,-97.42237,35.446053
La Quinta Inn & Suites Oklahoma City - Moore,"2140 Riverwalk Dr,
Moore, OK 73160",1-405-759-7700,1-405-759-7711,-97.49318,35.319147
La Quinta Inn & Suites Oklahoma City Norman,"930 Ed Noble Pkwy,
Norman, OK 73072",1-405-579-4000,1-405-579-4001,-97.482773,35.207202
La Quinta Inn & Suites Oklahoma City NW Expwy,"4829 Northwest Expressway,
Oklahoma City, OK 73132-7215",1-405-773-5575,1-405-773-5655,-97.608978,35.545383
La Quinta Inn & Suites Oklahoma City -Yukon,"11500 West - I 40 Service Rd,
Yukon, OK 73099",1-405-494-7600,1-405-494-7601,-97.726092,35.467032
La Quinta Inn & Suites Olathe,"20570 West 151st St,
Olathe, KS 66061",1-913-254-0111,1-913-254-0777,-94.819061,38.855918
La Quinta Inn Olympia - Lacey,"4704 Park Center Ave Northeast,
Lacey, WA 98516",1-360-412-1200,1-360-412-1100,-122.821183,47.049379
La Quinta Inn & Suites Omaha Airport Downtown,"1201 Ave H,
Carter Lake, IA 51510",1-712-347-6595,1-712-347-2191,-95.914052,41.281023
La Quinta Inn Omaha West,"3330 North 104th Ave,
Omaha, NE 68134-3764",1-402-493-1900,1-402-496-0757,-96.075383,41.289464
La Quinta Inn Omaha Southwest,"10760 M St,
Omaha, NE 68127",1-402-592-5200,1-402-592-1416,-96.079951,41.211681
La Quinta Inn & Suites Ontario Airport,"3555 Inland Empire Blvd,
Ontario, CA 91764-4908",1-909-476-1112,1-909-476-1121,-117.572896,34.07152
La Quinta Inn & Suites Orange County Airport,"2721 Hotel Terrace,
Santa Ana, CA 92705",1-714-540-1111,1-714-662-1643,-117.85324,33.71015
La Quinta Inn & Suites Orange,"2220 Hwy 62 South,
Orange, TX 77630",1-409-883-0011,1-409-883-0013,-93.820249,30.112789
La Quinta Inn & Suites Orem University Parkway,"521 West University Pkwy,
Orem, UT 84058",1-801-226-0440,1-801-226-4798,-111.708174,40.272696
La Quinta Inn & Suites North Orem,"1100 West 780 North,
Orem, UT 84057",1-801-235-9555,1-801-235-9559,-111.722159,40.311346
La Quinta Inn & Suites Orlando Airport North,"7160 North Frontage Rd,
Orlando, FL 32812",1-407-240-5000,1-407-240-5261,-81.312991,28.459061
La Quinta Inn Orlando Airport West,"7931 Daetwyler Dr,
Orlando, FL 32812",1-407-857-9215,1-407-857-0877,-81.338811,28.452227
La Quinta Inn & Suites Orlando I Drive/Conv Center,"8504 Universal Blvd,
Orlando, FL 32819",1-407-345-1365,1-407-345-5586,-81.468404,28.440714
La Quinta Inn Orlando International Drive North,"5825 International Dr,
Orlando, FL 32819",1-407-351-4100,1-407-996-4599,-81.46011,28.46313
La Quinta Inn & Suites Orlando Lake Mary,"1060 Greenwood Blvd,
Lake Mary, FL 32746",1-407-805-9901,1-407-805-9968,-81.364027,28.748653
La Quinta Inn & Suites Orlando South,"2051 Consulate Dr,
Orlando, FL 32837",1-407-240-0500,1-407-240-5194,-81.405644,28.428448
La Quinta Inn & Suites Orlando UCF,"11805 Research Pkwy,
Orlando, FL 32826",1-407-737-6075,1-407-737-7562,-81.207217,28.588528
La Quinta Inn & Suites Orlando Universal Area,"5621 Major Blvd,
Orlando, FL 32819",1-407-313-3100,1-407-313-3131,-81.45298,28.481027
La Quinta Inn & Suites Oshawa,"63 King Street East,
Oshawa, ON L1H 1B4",1-905-571-1333,1-905-571-5348,-78.861257,43.898034
La Quinta Inn Oshkosh,"1886 Rath Lane,
Oshkosh, WI 54902",1-920-233-4190,1-920-233-8197,-88.581723,44.03283
La Quinta Inn & Suites Overland Park,"10610 Marty St,
Overland Park, KS 66212",1-913-648-5555,1-913-648-7130,-94.67074,38.93515
La Quinta Inn & Suites Owasso,"8949 N Garnett Rd.,
Owasso, OK 74055",1-918-376-4447,1-918-376-4460,-95.847394,36.284741
La Quinta Inn & Suites Oxford - Anniston,"100 Colonial Drive,
Oxford, AL 36203",1-256-241-0950,1-256-241-0960,-85.790504,33.613421
La Quinta Inn & Suites Paducah,"3960 Coleman Crossing Circle,
Paducah, KY 42001",1-270-443-4800,1-270-443-4902,-88.68294,37.08611
La Quinta Inn & Suites Palestine,"3000 South Loop 256,
Palestine, TX 75801",1-903-723,1-903-723,-95.629281,31.734226
La Quinta Inn & Suites Pampa,"500 W Harvester,
Pampa, TX 79065",1-806-486-1575,1-806-486-1647,-100.970668,35.549916
La Quinta Inn & Suites PCB Pier Park Area,"17710 West Panama City Beach Pkwy,
Panama City Beach, FL 32413",1-850-249-1112,1-850-249-3111,-85.904302,30.236849
La Quinta Inn & Suites Panama City Beach,"7115 Coastal Palms Blvd,
Panama City Beach, FL 32408",1-850-234-3133,1-850-234-1233,-85.761369,30.174413
La Quinta Inn & Suites Panama City,"1030 East 23rd St,
Panama City, FL 32405",1-850-914-0022,1-850-914-0027,-85.642207,30.189363
La Quinta Inn & Suites Paris,"3205 Northeast Loop 286,
Paris, TX 75460",1-903-783-9600,1-903-783-9710,-95.51776554,33.67347831
La Quinta Inn & Suites Pasadena North,"2205 Pasadena Freeway,
Pasadena, TX 77506",1-713-475-2205,1-713-475-2206,-95.183269,29.713591
La Quinta Inn & Suites Pasadena,"3490 East Sam Houston Pkwy South,
Pasadena, TX 77505",1-281-991-7771,1-281-991-7785,-95.158081,29.658621
La Quinta Inn & Suites Paso Robles,"2615 Buena Vista Dr,
Paso Robles, CA 93446",1-805-239-3004,1-805-239-3014,-120.671403,35.645172
La Quinta Inn & Suites Pearland,"9002 Broadway St,
Pearland, TX 77584",1-281-412-5454,1-281-412-5462,-95.359365,29.558498
La Quinta Inn & Suites Pearsall,"170 Medical Dr,
Pearsall, TX 78061",1-830-872-3277,1-830-334-3967,-99.118953,28.898133
La Quinta Inn & Suites Pecos,"101 South Frontage Road, I-20 West,
Pecos, TX 79772",1-432-445-7830,1-432-445-3700,-103.501103,31.395457
La Quinta Inn Pensacola,"7750 North Davis Hwy,
Pensacola, FL 32514-7557",1-850-474-0411,1-850-474-1521,-87.221229,30.50556
La Quinta Inn Peru Starved Rock State Park,"4389 Venture Dr,
Peru, IL 61354",1-815-224-9000,1-815-224-9100,-89.129994,41.363135
La Quinta Inn & Suites Pharr- Hwy 281,"4607 N Cage Blvd,
Pharr, TX 78577",1-956-782-8832,1-956-782-8837,-98.178405,26.234571
La Quinta Inn & Suites Pharr - Rio Grande Valley,"4603 N. Cage Blvd,
Pharr, TX 78577",1-956-787-2900,1-956-787-5800,-98.17921,26.234456
La Quinta Inn & Suites Philadelphia Airport,"53 Industrial Highway,
Essington, PA 19029",1-610-521-9800,1-610-521-4847,-75.30739,39.867421
La Quinta Inn & Suites Phoenix Chandler,"15241 South 50th St,
Phoenix, AZ 85044-9102",1-480-961-7700,1-480-940-1307,-111.97356,33.306932
La Quinta Inn & Suites Phoenix I-10 West,"4929 West McDowell Rd,
Phoenix, AZ 85035",1-602-595-7601,1-602-595-6451,-112.16634,33.46581
La Quinta Inn & Suites Phoenix Mesa West,"902 West Grove Ave,
Mesa, AZ 85210-4930",1-480-844-8747,1-480-844-8850,-111.852067,33.390577
La Quinta Inn Phoenix North,"2510 W Greenway Rd,
Phoenix, AZ 85023",1-602-993-0800,1-602-789-9172,-112.114636,33.625699
La Quinta Inn & Suites Phoenix Scottsdale,"8888 East Shea Blvd,
Scottsdale, AZ 85260",1-480-614-5300,1-480-614-5333,-111.890062,33.583395
La Quinta Inn Phoenix Sky Harbor Airport,"911 South 48th St,
Tempe, AZ 85281-5102",1-480-967-4465,1-480-921-9172,-111.977048,33.420344
La Quinta Inn Phoenix Thomas Road,"2725 North Black Canyon Hwy,
Phoenix, AZ 85009-1897",1-602-258-6271,1-602-340-9255,-112.112429,33.479474
La Quinta Inn & Suites Phoenix West Peoria,"16321 North 83rd Ave,
Peoria, AZ 85382",1-623-487-1900,1-623-487-1919,-112.232847,33.634992
La Quinta Inn Pigeon Forge-Dollywood,"219 Emert St,
Pigeon Forge, TN 37863",1-865-429-3010,1-865-429-9545,-83.552852,35.78238
La Quinta Inn & Suites Pigeon Forge,"125 Community Center Drive,
Pigeon Forge, TN 37863",1-865-908-6633,1-865-908-4191,-83.579771,35.806506
La Quinta Inn & Suites Pittsburg,"2410 S Broadway St.,
Pittsburg, KS 66762",1-620-670-5614,1-620-670-5619,-94.706291,37.382809
La Quinta Inn Pittsburgh Airport,"8507 University Blvd,
Moon Township, PA 15108-2509",1-412-269-0400,1-412-269-9258,-80.222608,40.5079
La Quinta Inn & Suites Norwich-Plainfield-Casino,"18 Pratt Rd,
Plainfield, CT 06374",1-860-564-1010,1-860-564-9090,-71.91094,41.664265
La Quinta Inn & Suites Plano Legacy Frisco,"6624 Communications Parkway,
Plano, TX 75024",1-214-265-8900,1-214-291-7020,-96.832264,33.062755
La Quinta Inn & Suites Plantation at SW 6th St,"7901 Southwest 6th St,
Plantation, FL 33324",1-954-473-8257,1-954-473-9804,-80.25739,26.11385
La Quinta Inn & Suites Plattsburgh,"16 Plaza Blvd,
Plattsburgh, NY 12901",1-518-562-4000,1-518-561-3234,-73.496464,44.697585
La Quinta Inn Pleasant Prairie Kenosha,"7540 118th Ave,
Pleasant Prairie, WI 53158",1-262-857-7911,1-262-857-2370,-87.949722,42.566526
La Quinta Inn & Suites Pocatello,"1440 Bench Road,
Pocatello, ID 83201",1-208-234-7500,1-208-234-0000,-112.433173,42.900519
La Quinta Inn & Suites Pomona,"3200 W. Temple Ave.,
Pomona, CA 91768",1-909-598-0073,1-909-594-5654,-117.80381,34.046394
La Quinta Inn & Suites Ponca City,"3413 N 14th St,
Ponca City, OK 74601",1-580-749-5515,1-580-749-5523,-97.067042,36.745642
La Quinta Inn & Suites Pontoon Beach,"14 Regency Parkway,
Pontoon Beach, IL 62040",1-618-797-1200,1-618-797-1207,-90.071973,38.745169
La Quinta Inn & Suites Port Arthur,"7540 Memorial Blvd,
Port Arthur, TX 77642",1-409-722-8383,1-409-722-8385,-93.980848,29.937235
La Quinta Inn & Suites Port Charlotte,"812 Kings Hwy,
Port Charlotte, FL 33980",1-941-979-4200,1-941-979-4201,-82.04843,27.017164
La Quinta Inn & Suites Port Lavaca,"910 Hwy 35 North,
Port Lavaca, TX 77979",1-361-552-8800,1-361-552-9200,-96.630024,28.632121
La Quinta Inn & Suites Port Orange / Daytona,"1791 Dunlawton,
Port Orange, FL 32129",1-386-756,1-386-756-3441,-81.028048,29.107523
La Quinta Inn & Suites Portland Airport,"11207 Northeast Holman St,
Portland, OR 97220",1-503-382-3820,1-503-382-3821,-122.547128,45.568957
La Quinta Inn & Suites Portland NW,"4319 NW Yeon Ave,
Portland, OR 97210",1-503-497-9044,1-503-497-1030,-122.730422,45.553342
La Quinta Inn & Suites Portland,"340 Park Ave,
Portland, ME 04102",1-207-871-0611,1-207-871-8243,-70.28195,43.65567
LQ Hotel by La Quinta Poza Rica,"Calle Las Torres-1 Colonia Reforma,
Poza Rica, VE 93210",52-782-826-4950,52-782-826-4951,-97.437583,20.564131
La Quinta Inn & Suites Prattville,"261 Interstate Commercial Parkloop,
Prattville, AL 36066",1-334-358-5454,1-334-358-0411,-86.40979,32.48599
La Quinta Inn & Suites Conference Center Prescott,"4499 E State Route 69,
Prescott, AZ 86301",1-928-777-0770,1-928-777-0064,-112.384424,34.551183
LQ Hotel by La Quinta Puebla Ciudad Modelo,"Blvd. Audi N. 3 Ciudad Modelo,
San Jose Chiapa, PU 75010",52-222-690-9740,NA,-97.781463,19.226297
LQ Hotel by La Quinta Puebla Palmas Angelopolis,"Ave. Zeta del Cochero No 407, Col. ReservaTerritorial Atlixcayotl San
Puebla, PU 72810",52-222-30,52-222-30,-98.22969,19.027317
La Quinta Inn & Suites Pueblo,"4801 North Elizabeth St,
Pueblo, CO 81008",1-719-542-3500,1-719-542-3535,-104.616446,38.324071000000004
La Quinta Inn Queens (New York City),"37-18 Queens Blvd,
Long Island City, NY 11101",1-718-729-8775,1-718-729-8021,-73.92823,40.743988
La Quinta Inn Radford,"1450 Tyler Ave,
Radford, VA 24141",1-540-633-6800,1-540-633-6802,-80.540369,37.126777
La Quinta Inn & Suites Raleigh Cary,"191 Crescent Commons,
Cary, NC 27518",1-919-851-2850,1-919-851-0728,-78.784147,35.735803
La Quinta Inn & Suites Raleigh Crabtree,"2211 Summit Park Ln,
Raleigh, NC 27612",1-919-785-0071,1-919-785-0081,-78.676053,35.833622
La Quinta Inn & Suites Raleigh Durham Airport S,"1001 Aerial Center Pkwy,
Morrisville, NC 27560",1-919-481-3600,1-919-460-1584,-78.816589,35.85856
La Quinta Inn & Suites Raleigh Durham Intl AP,"1001 Hospitality Ct,
Morrisville, NC 27560",1-919-461-1771,1-919-461-1721,-78.816956,35.859906
La Quinta Inn & Suites Rancho Cordova Sacramento,"11131 Folsom Blvd,
Rancho Cordova, CA 95670",1-916-638-1111,1-916-635-3297,-121.270881,38.605137
La Quinta Inn & Suites Rapid City,"1416 North Elk Vale Rd,
Rapid City, SD 57701",1-605-718-7000,1-605-718-1825,-103.14887,44.09956
La Quinta Inn & Suites Raymondville,"128 North Expressway 77,
Raymondville, TX 78580",1-956-689-4000,1-956-690-4178,-97.769971,26.483886
La Quinta Inn & Suites Redding,"2180 Hilltop Dr,
Redding, CA 96002 0512",1-530-221-8200,1-530-223-4727,-122.357954,40.575875
La Quinta Inn Reno,"4001 Market St,
Reno, NV 89502-3110",1-775-348-6100,1-775-348-8794,-119.782373,39.509542
La Quinta Inn & Suites Richmond Midlothian,"1301 Huguenot Rd,
Midlothian, VA 23113",1-804-794-4999,1-804-794-1028,-77.611606,37.509295
La Quinta Inn & Suites Richmond - Kings Dominion,"16280 International Street,
Doswell, VA 23047",1-804-876-6900,1-804-876-6901,-77.446414,37.849904
La Quinta Inn Richmond South,"9040 Pams Ave,
Richmond, VA 23237",1-804-743-0770,1-804-521,-77.427581,37.401114
La Quinta Inn Richmond,"1751 Lexington Rd,
Richmond, KY 40475",1-859-623-9121,1-859-623-3160,-84.312822,37.769434
La Quinta Inn & Suites Rifle,"600 Wapiti Ct,
Rifle, CO 81650",1-970-361-3390,1-970-625-4474,-107.77357,39.52396
La Quinta Inn Roanoke Salem,"140 Sheraton Dr,
Salem, VA 24153",1-540-404-9659,1-540-404-9667,-80.032353,37.321267
La Quinta Inn & Suites Rochester,"4353 Canal Place SE,
Rochester, MN 55904",1-507-289-4200,1-507-289-4201,-92.46287,43.959183
La Quinta Inn & Suites Rockford,"7401 Walton St.,
Rockford, IL 61108",1-815-227-1300,1-815-227-9231,-88.971828,42.268576
La Quinta Inn & Suites Rockport - Fulton,"2921 Highway 35 N,
Rockport, TX 78382",1-361-727-9824,1-361-727-9826,-97.041797,28.058097
La Quinta Inn & Suites Rockwall,"689 East Interstate 30,
Rockwall, TX 75087",1-972-771-1685,1-972-772-8107,-96.469065,32.896964
La Quinta Inn & Suites Rome,"15 Chateau Dr,
Rome, GA 30161",1-706-291-1034,1-706-291-1036,-85.153265,34.222206
La Quinta Inn & Suites Houston Rosenberg,"28332 Southwest Fwy 59,
Rosenberg, TX 77471",1-832-595-6111,1-832-595-6222,-95.811751,29.532868
La Quinta Inn & Suites Roswell,"200 East 19th St,
Roswell, NM 88201",1-575-622-8000,1-575-622-8020,-104.519935,33.415771
La Quinta Inn & Suites Austin North - Round Rock,"150 Parker Dr,
Austin, TX 78728",1-512-246-2800,1-512-246-2824,-97.674186,30.474859
La Quinta Inn & Suites Ruidoso Downs,"26147 US Highway 70,
Ruidoso Downs, NM 88346",1-575-378-3333,1-575-378-1004,-105.621959,33.326486
La Quinta Inn & Suites Russellville,"111 East Harrell Dr,
Russellville, AR 72802",1-479-967-2299,1-479-967-2399,-93.135191,35.303822
La Quinta Inn Sacramento Downtown,"200 Jibboom St,
Sacramento, CA 95811",1-916-448-8100,1-916-447-3621,-121.505185,38.597887
La Quinta Inn Sacramento North,"4604 Madison Ave,
Sacramento, CA 95841-2515",1-916-348-0900,1-916-331-7160,-121.357287,38.659677
La Quinta Inn & Suites Salem,"8 Keewaydin Dr,
Salem, NH 03079",1-603-893-4722,1-603-893-2898,-71.245871,42.774373
La Quinta Inn & Suites Salem,"890 Hawthorne Ave Southeast,
Salem, OR 97301",1-503-391-7000,1-503-391-7222,-122.99615,44.920551
La Quinta Inn & Suites Salina,"201 East Diamond Drive,
Salina, KS 67401",1-785-827-9000,1-785-827-9393,-97.610458,38.878368
La Quinta Inn & Suites Salisbury,"300 South Salisbury Blvd,
Salisbury, MD 21801",1-410-546-4400,1-410-546-2528,-75.596638,38.364309
La Quinta Inn & Suites Salt Lake City Airport,"4905 West Wiley Post Way,
Salt Lake City, UT 84116",1-801-366-4444,1-801-366-5555,-112.008206,40.773405
La Quinta Inn & Suites Salt Lake City Layton,"1965 North 1200 West,
Layton, UT 84041-1939",1-801-776-6700,1-801-776-2677,-111.987963,41.088349
La Quinta Inn Salt Lake City Midvale,"7231 South Catalpa St,
Midvale, UT 84047-7396",1-801-566-3291,1-801-562-5943,-111.902494,40.619935
La Quinta Inn Salt Lake City West,"3540 South 2200 West,
Salt Lake City, UT 84119",1-801-954-9292,1-801-954-8242,-111.94858,40.695563
La Quinta Inn and Conference Center San Angelo,"2307 Loop 306,
San Angelo, TX 76904-6663",1-325-949-0515,1-325-944-1187,-100.475807,31.416031
La Quinta Inn & Suites San Antonio Airport,"850 Halm Blvd,
San Antonio, TX 78216",1-210-342-3738,1-210-348-9666,-98.481047,29.518862
La Quinta Inn San Antonio Brooks City Base,"3180 Goliad Rd,
San Antonio, TX 78223",1-210-337-7171,1-210-337-4924,-98.429394,29.35111
La Quinta Inn & Suites San Antonio Downtown,"100 W. Cesar Chavez Blvd,
San Antonio, TX 78204",1-210-212-5400,1-210-212-5407,-98.497408,29.420247
La Quinta Inn & Suites San Antonio by AT&T Center,"6111 IH-10 East,
San Antonio, TX 78219",1-210-662-2677,1-210-465-7006,-98.3625966,29.445694
La Quinta Inn San Antonio I-35 N at Rittiman Rd,"6410 I-35 North,
San Antonio, TX 78218-4405",1-210-653-6619,1-210-590-3359,-98.401802,29.488601
La Quinta Inn San Antonio I-35 N at Toepperwein,"12822 I-35 North,
San Antonio, TX 78233-2611",1-210-657-5500,1-210-590-3640,-98.34608,29.555856
La Quinta Inn San Antonio Lackland,"6511 West Military Drive,
San Antonio, TX 78227-3615",1-210-674-3200,1-210-673-6015,-98.627563,29.400525
La Quinta Inn San Antonio Market Square,"900 Dolorosa St,
San Antonio, TX 78207-4540",1-210-271-0001,1-210-228-0663,-98.499488,29.424297
La Quinta Inn & Suites San Antonio Medical Center,"4431 Horizon Hill Blvd,
San Antonio, TX 78229",1-210-525-8090,1-210-525-8453,-98.555667,29.51654
La Quinta Inn & Suites San Antonio North Stone Oak,"1017 N Loop 1604 E,
San Antonio, TX 78232",1-210-497-0506,1-210-497-0522,-98.478011,29.611989
La Quinta Inn & Suites San Antonio Northwest,"11155 West Loop 1604 North,
San Antonio, TX 78254",1-210-447-8000,1-210-447-8040,-98.675087,29.545977
La Quinta Inn & Suites San Antonio Riverwalk,"303 Blum St,
San Antonio, TX 78205-3303",1-210-222-9181,1-210-228-9816,-98.482471,29.423821
La Quinta Inn San Antonio Sea World Ingram Park,"7134 Northwest Loop 410,
San Antonio, TX 78238-4116",1-210-680-8883,1-210-681-3877,-98.628099,29.454693
La Quinta Inn San Antonio South Park,"7202 South Pan Am Expwy,
San Antonio, TX 78224-1415",1-210-922-2111,1-210-923-7979,-98.525624,29.355711
La Quinta Inn & Suites San Antonio The Dominion,"25042 IH-10 West,
San Antonio, TX 78257",1-210-564-6700,1-210-698-8334,-98.633803,29.674402
La Quinta Inn San Antonio Vance Jackson,"5922 I-10 West,
San Antonio, TX 78201-2814",1-210-734-7931,1-210-733-6039,-98.533714,29.483886
La Quinta Inn San Bernardino,"205 East Hospitality Ln,
San Bernardino, CA 92408-3411",1-909-888-7571,1-909-884-3864,-117.28313,34.065754
La Quinta Inn & Suites Carlsbad - Legoland Area,"760 Macadamia Dr,
Carlsbad, CA 92011",1-760-438-2828,1-760-438-8181,-117.31404,33.10635
La Quinta Inn San Diego Chula Vista,"150 Bonita Rd,
Chula Vista, CA 91910",1-619-691-1211,1-619-427-0135,-117.062048,32.647389
La Quinta Inn San Diego - Miramar,"10185 Paseo Montril,
San Diego, CA 92129",1-858-484-8800,1-858-538-0476,-117.106399,32.950618
La Quinta Inn & Suites San Diego Mission Bay,"4610 De Soto Street,
San Diego, CA 92109",1-858-483-9800,1-858-263-4172,-117.217931,32.80693
La Quinta Inn San Diego Oceanside,"937 North Coast Hwy,
Oceanside, CA 92054",1-760-450-0730,1-760-450-0626,-117.384496,33.202764
La Quinta Inn & Suites San Diego Old Town/Airport,"2380 Moore St,
San Diego, CA 92110",1-619-291-9100,1-619-291-5837,-117.194662,32.749279
La Quinta Inn & Suites San Diego SeaWorld/Zoo Area,"641 Camino Del Rio South,
San Diego, CA 92108",1-619-295-6886,1-619-296-9661,-117.15845,32.76354
La Quinta Inn San Diego Vista,"630 Sycamore Ave,
Vista, CA 92083",1-760-727-8180,1-760-598-1732,-117.216998,33.166746
La Quinta Inn & Suites San Francisco Airport North,"20 Airport Blvd,
South San Francisco, CA 94080-6515",1-650-583-2223,1-650-589-6770,-122.407538,37.650684
La Quinta Inn & Suites San Francisco Airport West,"1390 El Camino Real,
Millbrae, CA 94030",1-650-952-3200,1-650-952-0474,-122.400903,37.610262
La Quinta Inn & Suites San Jose Airport,"2585 Seaboard Ave,
San Jose, CA 95131",1-408-435-8800,1-408-435-8879,-121.938551,37.37815
LQ Hotel by La Quinta San Luis Potosi,"Av. Benito Juarez 1230 B (Carretera 57), Col. Valle Dorado, Zona Hotelera
San Luis Potosi, SL 78399",52-444-832-2000,1-52-444,-100.938992,22.136998
La Quinta Inn & Suites San Marcos Outlet Mall,"111 Center Point Court,
San Marcos, TX 78666",1-512-667-6284,1-512-667-6454,-97.980113,29.824809
La Quinta Inn San Marcos,"1619 I-35 North,
San Marcos, TX 78666",1-512-392-8800,1-512-392-0324,-97.909926,29.896737
La Quinta Inn Sandpoint,"415 Cedar St,
Sandpoint, ID 83864",1-208-263-9581,1-208-263-3395,-116.551927,48.275984
La Quinta Inn Sandusky near Cedar Point,"3304 Milan Rd,
Sandusky, OH 44870",1-419-626-6766,1-419-626-8882,-82.682802,41.427237
La Quinta Inn & Suites Santa Barbara Downtown,"1601 State Street,
Santa Barbara, CA 93101",1-805-966-0807,1-805-966-6502,-119.710005,34.426869
La Quinta Inn & Suites Santa Clarita - Valencia,"25201 The Old Rd,
Stevenson Ranch, CA 91381",1-661-286-1111,1-661-286-1141,-118.564751,34.376067
La Quinta Inn Santa Fe,"4298 Cerrillos Rd,
Santa Fe, NM 87507",1-505-471-1142,1-505-438-7219,-106.019228,35.635102
La Quinta Inn & Suites Santa Rosa,"2277 Historic Rte 66,
Santa Rosa, NM 88435",1-575-472-4800,1-575-472-4809,-104.66831,34.945491
La Quinta Inn & Suites Sarasota - I75,"5931 Commercial Way,
Sarasota, FL 34232",1-941-342-8778,1-941-342-8668,-82.449748,27.340223
La Quinta Inn & Suites Sarasota Downtown,"1803 North Tamiami Trail,
Sarasota, FL 34234",1-941-366-5128,1-941-953-4322,-82.54716,27.35327
La Quinta Inn & Suites Savannah Airport - Pooler,"414 Gray St,
Pooler, GA 31322",1-912-748-3771,1-912-748-3772,-81.24062,32.114214
La Quinta Inn Savannah I-95,"6 Gateway Blvd South,
Savannah, GA 31419",1-912-925-9505,1-912-925-3495,-81.281455,32.002669
La Quinta Inn Savannah Midtown,"6805 Abercorn St,
Savannah, GA 31405",1-912-355-3004,1-912-355-0143,-81.113014,32.015227
La Quinta Inn & Suites Savannah Southside,"8484 Abercorn St,
Savannah, GA 31406",1-912-927-7660,1-912-927-6392,-81.126485,32.000047
La Quinta Inn & Suites Schertz,"17650 Four Oaks Ln,
Schertz, TX 78154",1-210-655-2700,1-210-655-5700,-98.27793,29.605234
La Quinta Inn & Suites Searcy,"504 North Poplar St,
Searcy, AR 72143",1-501-278-4200,1-501-278-5694,-91.690983,35.251415
La Quinta Inn & Suites Seattle Bellevue / Kirkland,"10530 Northeast Northup Way,
Kirkland, WA 98033",1-425-828-6585,1-425-822-8722,-122.199839,47.642731
La Quinta Inn & Suites Seattle Downtown,"2224 8th Ave,
Seattle, WA 98121",1-206-624-6820,1-206-467-6926,-122.339453,47.617643
La Quinta Inn & Suites Seattle Sea-Tac Airport,"2824 South 188th St,
Seattle, WA 98188",1-206-241-5211,1-206-246-5596,-122.297016,47.435136
La Quinta Inn & Suites Sebring,"4115 US 27 South,
Sebring, FL 33870",1-863-386-1000,1-863-386-0016,-81.431094,27.461215
La Quinta Inn & Suites Secaucus Meadowlands,"350 Lighting Way,
Secaucus, NJ 07094",1-201-863-8700,1-201-863-6209,-74.04943,40.790192
La Quinta Inn & Suites Seguin,"1501 Hwy 46 North,
Seguin, TX 78155",1-830-372-0567,1-830-372-0527,-97.992564,29.581314
La Quinta Inn & Suites Sevierville / Kodak,"2428 Winfield Dunn Pkwy,
Sevierville, TN 37764",1-865-933-3339,1-865-933-9930,-83.583128,35.935254
La Quinta Inn & Suites Shawnee,"5401 Enterprise Ct,
Shawnee, OK 74804",1-405-275-7930,1-405-275-7119,-96.91034,35.38522
La Quinta Inn Sheboygan,"2932 Kohler Memorial Dr,
Sheboygan, WI 53081",1-920-457-2321,1-920-457-0827,-87.745829,43.757193
La Quinta Inn & Suites Sherman,"2912 Hwy 75 North,
Sherman, TX 75090",1-903-870-1122,1-903-870-1132,-96.611787,33.668303
La Quinta Inn & Suites Shreveport Airport,"6700 Financial Circle,
Shreveport, LA 71129",1-318-671-1100,1-318-671-1600,-93.862108,32.449416
La Quinta Inn & Suites Silverthorne - Summit Co,"560 Silverthorne Ln,
Silverthorne, CO 80498",1-970-468-6200,1-970-468-7829,-106.065643,39.630544
La Quinta Inn & Suites Sioux Falls,"4521 W. 41st Street,
Sioux Falls, SD 57106",1-605-275-4555,1-605-275-4556,-96.782126,43.51451
La Quinta Inn & Suites Slidell - North Shore Area,"126 Holiday Blvd,
Slidell, LA 70460",1-985-649-2170,1-985-649-2171,-89.829519,30.311755
La Quinta Inn & Suites Smyrna TN - Nashville,"2537 Highwood Blvd,
Smyrna, TN 37167",1-615-220-8845,1-615-220-8846,-86.568087,35.969258
La Quinta Inn & Suites Snellville - Stone Mountain,"2971 Main St West,
Snellville, GA 30078",1-770-736-4723,1-770-407-4208,-84.036491,33.853161
La Quinta Inn & Suites South Bend,"23040 Lincolnway West,
South Bend, IN 46628",1-574-233-3131,1-574-289-6187,-86.313813,41.696511
La Quinta Inn & Suites South Burlington,"1285 Williston Rd,
South Burlington, VT 05403",1-802-865-3400,1-802-846-3410,-73.173183,44.467249
La Quinta Inn & Suites South Padre Island,"7000 Padre Blvd,
South Padre Island, TX 78597",1-956-772-7000,1-956-772-9311,-97.169965,26.137937
La Quinta Inn & Suites Spokane North,"9601 N Newport Hwy.,
Spokane, WA 99218",1-509-468-5020,1-509-443-4702,-117.406573,47.744904
La Quinta Inn & Suites Spokane Valley,"3808 North Sullivan Rd,
Spokane Valley, WA 99216",1-509-893-0955,1-509-252-3988,-117.195478,47.691296
La Quinta Inn & Suites Springdale,"1300 South 48th St,
Springdale, AR 72762",1-479-751-2626,1-479-751-0075,-94.18364,36.173909
La Quinta Inn & Suites Springfield Airport Plaza,"2445 N. Airport Plaza Avenue,
Springfield, MO 65803",1-417-447-4466,1-417-447-4467,-93.346429,37.242838
La Quinta Inn & Suites Springfield,"1121 Lejune Dr.,
Springfield, IL 62703",1-217-697-5686,1-217-697-5694,-89.641006,39.746292
La Quinta Inn & Suites Springfield South,"2535 South Campbell,
Springfield, MO 65807-3501",1-417-890-6060,1-417-881-2397,-93.295728,37.168855
La Quinta Inn & Suites Springfield,"100 Congress Street,
Springfield, MA 01104",1-413-781-0900,1-413-785-1410,-72.595256,42.10948
La Quinta Inn & Suites St. Albans,"813 Fairfax Rd,
Saint Albans, VT 05478",1-802-524-3300,1-802-524-2387,-73.072954,44.793862
La Quinta Inn & Suites St. Augustine,"250 Outlet Mall Blvd,
Saint Augustine, FL 32084",1-904-209-2580,1-904-209-2585,-81.408351,29.918613
La Quinta Inn & Suites St. George,"91 East 2680 South,
Saint George, UT 84790",1-435-674-2664,1-435-628-7792,-113.58283,37.06301
La Quinta Inn St. Louis Hazelwood - Airport North,"318 Taylor Rd,
Hazelwood, MO 63042",1-314-731-4200,1-314-731-3339,-90.355232,38.780808
La Quinta Inn & Suites St. Louis Airport-Riverport,"13615 Riverport Drive,
Maryland Heights, MO 63043",1-314-209-0001,1-314-209-9511,-90.463709,38.750752
La Quinta Inn & Suites St. Louis Westport,"11805 Lackland Rd,
Saint Louis, MO 63146",1-314-991-3262,1-314-991-3374,-90.434487,38.698237
La Quinta Inn & Suites St. Petersburg Northeast,"6638 4th Street North,
St. Petersburg, FL 33702",1-727-525-1800,1-727-525-9250,-82.638751,27.83342
La Quinta Inn & Suites Stamford / New York City,"135 Harvard Ave,
Stamford, CT 06902",1-203-357-7100,1-203-358-9332,-73.56222,41.04371
La Quinta Inn & Suites Starkville at MSU,"982 Highway 12 East,
Starkville, MS 39759",1-662-270-4100,1-662-320-7180,-88.79391,33.481111
La Quinta Inn Steamboat Springs,"3155 Ingles Ln,
Steamboat Springs, CO 80487",1-970-871-1219,1-970-871-1211,-106.81493,40.4484
La Quinta Inn & Suites Stephenville,"105 Christy Plaza,
Stephenville, TX 76401",1-254-918-2444,1-254-918-2082,-98.241886,32.201662
La Quinta Inn & Suites Stevens Point,"4917 Main St,
Stevens Point, WI 54481",1-715-344-1900,1-715-344-1254,-89.532148,44.523108
La Quinta Inn & Suites Stillwater - University Area,"5285 West 6th Ave,
Stillwater, OK 74074",1-405-564-0599,1-405-564-0598,-97.130835,36.114559
La Quinta Inn Stockton,"2710 West March Ln,
Stockton, CA 95219",1-209-952-7800,1-209-472-0732,-121.344469,37.983028
La Quinta Inn & Suites Stonington - Mystic Area,"349 Liberty St,
Pawcatuck, CT 06379",1-860-599-2400,1-860-599-5485,-71.844755,41.397592
La Quinta Inn & Suites Sturbridge,"478 Main St.,
Sturbridge, MA 01518",1-508-347-5141,1-508-347-2034,-72.105111,42.114551
La Quinta Inn & Suites Sulphur Springs,"1344 Eaton Dr,
Sulphur Springs, TX 75482",1-903-885-8181,1-903-885-8121,-95.590657,33.118607
La Quinta Inn & Suites Summersville,"106 Merchants Walk Shopping CE,
Summersville, WV 26651",1-304-872-0555,1-304-872-9585,-80.834042,38.298281
La Quinta Inn & Suites Sunrise Sawgrass Mills,"13651 Northwest 2nd St,
Sunrise, FL 33325",1-954-846-1200,1-954-845-0100,-80.33133,26.1241
La Quinta Inn & Suites Sunrise,"13600 Northwest 2nd St,
Sunrise, FL 33325",1-954-845-9929,1-954-845-9996,-80.331586,26.123616
La Quinta Inn & Suites Sweetwater East,"308 SE Georgia Ave.
,
Sweetwater, TX 79556",1-325-933-6600,NA,-100.3902,32.4524
La Quinta Inn Sweetwater,"500 North West Georgia Ave,
Sweetwater, TX 79556",1-325-236-6887,1-325-235-9671,-100.40216,32.45014
La Quinta Inn & Suites Tacoma Seattle,"1425 East 27th St,
Tacoma, WA 98421-2200",1-253-383-0146,1-253-627-3280,-122.412362,47.239586
La Quinta Inn Tallahassee North,"2905 N. Monroe St,
Tallahassee, FL 32303",1-850-385-7172,1-850-422-2463,-84.305006,30.481896
La Quinta Inn Tampa Bay Airport,"4730 W. Spruce St,
Tampa, FL 33607-1497",1-813-287-0440,1-813-286-7399,-82.525897,27.959563
La Quinta Inn Tampa Bay Pinellas Park Clearwater,"7500 Hwy 19 North,
Pinellas Park, FL 33781",1-727-545-5611,1-727-544-4202,-82.685151,27.840134
La Quinta Inn & Suites Tampa Brandon Regency Park,"310 Grand Regency Blvd,
Brandon, FL 33510",1-813-643-0574,1-813-643-5408,-82.327112,27.943825
La Quinta Inn & Suites Tampa Brandon West,"602 South Falkenburg Rd,
Tampa, FL 33619",1-813-684-4007,1-813-681-3042,-82.334213,27.944576
La Quinta Inn & Suites Tampa Central,"3826 West Waters Ave,
Tampa, FL 33614",1-813-490-9090,1-813-490-9091,-82.50636,28.024447
La Quinta Inn & Suites Tampa Fairgrounds - Casino,"4811 US Hwy 301 North,
Tampa, FL 33610",1-813-626-0885,1-813-623-3321,-82.35804,27.98946
La Quinta Inn Tampa Near Busch Gardens,"9202 North 30th St,
Tampa, FL 33612",1-813-930-6900,1-813-930-0563,-82.426622,28.033633
La Quinta Inn & Suites Tampa North I-75,"17301 Dona Michelle Dr,
Tampa, FL 33647",1-813-971-7676,1-813-910-0950,-82.371109,28.123714
La Quinta Inn & Suites Tampa Bay Area Tampa South,"4620 West Gandy Blvd,
Tampa, FL 33611",1-813-835-6262,1-813-835-6888,-82.523198,27.893163
LQ Hotel Tegucigalpa,"Blvd. Fuerza Armadas, contiguo Mall Las Cascadas
Tegucigalpa, FM 11101",504-220-25000,504-220-25001,-87.199379,14.075929
La Quinta Inn Tehachapi,"500 Steuber Rd,
Tehachapi, CA 93561",1-661-823-8000,1-661-823-8006,-118.413488,35.125946
La Quinta Inn & Suites Temecula,"27330 Jefferson Ave,
Temecula, CA 92590",1-951-296-1003,1-951-296-1004,-117.165236,33.522922
La Quinta Inn Temple,"1604 West Barton Ave,
Temple, TX 76504-2457",1-254-771-2980,1-254-778-7565,-97.356682,31.103476
La Quinta Inn & Suites Terre Haute,"451 E Margaret Ave.,
Terre Haute, IN 47802",1-812-244-1144,1-812-244-1150,-87.410876,39.432477
La Quinta Inn Terrell,"1614 Hwy 34 South,
Terrell, TX 75160",1-972-551-1090,1-972-551-0252,-96.277571,32.703317
La Quinta Inn & Suites Dallas Plano - The Colony,"3750 Market Street,
The Colony, TX 75056",1-469-294-0323,1-469-294-0324,-96.897026,33.063722
La Quinta Inn & Suites Thousand Oaks Newbury Park,"1320 Newbury Rd,
Thousand Oaks, CA 91320",1-805-499-5910,1-805-498-5783,-118.91002,34.18285
La Quinta Inn Toledo Perrysburg,"1154 Professional Dr,
Perrysburg, OH 43551",1-419-872-0000,1-419-872-8650,-83.606449,41.549363
La Quinta Inn & Suites Tomball,"14000 Medical Complex Dr,
Tomball, TX 77375",1-281-516-0400,1-281-516-0401,-95.633444,30.084392
La Quinta Inn & Suites Trinidad,"2833 Toupal Dr,
Trinidad, CO 81082",1-719-845-0102,1-719-845-0201,-104.521195,37.140491
La Quinta Inn & Suites Tucson Airport,"7001 South Tucson Blvd,
Tucson, AZ 85706",1-520-573-3333,1-520-573-7710,-110.934124,32.124782
La Quinta Inn Tucson East,"6404 East Broadway,
Tucson, AZ 85710",1-520-747-1414,1-520-745-6903,-110.856563,32.220865
La Quinta Inn & Suites Tucson - Reid Park,"102 N. Alvernon Way,
Tucson, AZ 85711",1-520-795-0330,1-520-326-2111,-110.90924,32.223872
La Quinta Inn & Suites Tucumcari,"2516 South Adams St,
Tucumcari, NM 88401",1-575-461-2233,1-575-461-7988,-103.72305,35.154618
La Quinta Inn & Suites Tulare,"1500 N. Cherry Ct,
Tulare, CA 93274",1-559-685-8900,1-559-685-8901,-119.337097,36.226612
La Quinta Inn & Suites Tulsa Airport / Expo Square,"23 North 67th East Ave,
Tulsa, OK 74115",1-918-949-3600,1-918-949-3601,-95.901429,36.161694
La Quinta Inn & Suites Tulsa - Catoosa,"2009 S. Cherokee St,
Catoosa, OK 74015",1-918-739-4600,1-918-739-4609,-95.760207,36.167797
La Quinta Inn & Suites Tulsa Central,"6030 East Skelly Dr,
Tulsa, OK 74135",1-918-665-2630,1-918-858-9744,-95.910037,36.103188
La Quinta Inn & Suites Tumwater - Olympia,"4600 Capitol Blvd. SE,
Tumwater, WA 98501",1-360-352-5433,1-360-352-7519,-122.907334,47.006278
La Quinta Inn & Suites Tupelo,"1013 North Gloster St,
Tupelo, MS 38804",1-662-847-8000,1-662-847-8008,-88.715579,34.277
La Quinta Inn Tuscaloosa,"4122 McFarland Blvd East,
Tuscaloosa, AL 35405-3833",1-205-349-3270,1-205-758-0440,-87.525463,33.169701
La Quinta Inn & Suites Twin Falls,"539 Pole Line Road,
Twin Falls, ID 83301",1-208-736-9600,1-208-736-6757,-114.469319,42.591978
La Quinta Inn & Suites Tyler - University Area,"2552 S SE Loop 323,
Tyler, TX 75701",1-903-525-9677,1-903-525-9678,-95.26581,32.322261
La Quinta Inn Tyler,"1601 West Southwest Loop 323,
Tyler, TX 75701-8533",1-903-561-2223,1-903-581-5708,-95.320554,32.303847
La Quinta Inn & Suites Union City,"6604 Mall Blvd.,
Union City, GA 30291",1-770-306-0049,1-770-306-0050,-84.53781,33.574301
La Quinta Inn & Suites Coral Springs South,"3100 North University Dr,
Coral Springs, FL 33065",1-954-344-2200,1-954-344-0931,-80.250702,26.268403
La Quinta Inn & Suites USF (Near Busch Gardens),"3701 East Fowler Ave,
Tampa, FL 33612",1-813-910-7500,1-813-910-7600,-82.418114,28.053579
La Quinta Inn & Suites Valdosta / Moody AFB,"1800 Clubhouse Dr,
Valdosta, GA 31601",1-229-247-7755,1-229-245-1359,-83.327659,30.840363
La Quinta Inn Vancouver Airport,"8640 Alexandra Rd,
Richmond, BC V6X 1C4",1-604-276-2711,1-604-276-2733,-123.127116,49.177832
La Quinta Inn & Suites Vancouver,"1500 Northeast 134th St,
Vancouver, WA 98685",1-360-566-1100,1-360-566-1497,-122.6566,45.718201
La Quinta Inn Ventura,"5818 Valentine Rd,
Ventura, CA 93003",1-805-658-6200,1-805-642-2840,-119.210993,34.251294
La Quinta Inn & Suites Verona,"5394 Willow Place,
Verona, NY 13478",1-315-231-5080,1-315-363-3536,-75.592526,43.12233
La Quinta Inn & Suites Vicksburg,"4160 South Frontage Rd,
Vicksburg, MS 39180",1-601-802-0525,1-601-802-0526,-90.839008,32.343138
La Quinta Inn & Suites Victoria - South,"3107 S Laurent Street,
Victoria, TX 77901",1-361-703-5060,1-361-703-5025,-96.979047,28.76754
La Quinta Inn Victoria,"7603 N. Navarro St,
Victoria, TX 77904",1-361-572-3585,1-361-576-4617,-96.997811,28.866215
La Quinta Inn & Suites Virginia Beach,"2800 Pacific Ave,
Virginia Beach, VA 23451",1-757-428-2203,1-757-422-6043,-75.97871,36.8564
La Quinta Inn & Suites Visalia/Sequoia Gateway,"5438 West Cypress Ave,
Visalia, CA 93277",1-559-739-9800,1-559-739-9811,-119.351445,36.326034
La Quinta Inn Waldorf,"11770 Business Park Dr,
Waldorf, MD 20601",1-301-645-0022,1-301-645-0058,-76.898235,38.640263
La Quinta Inn & Suites Walker - Denham Springs,"13450 Vera McGowan Drive,
Walker, LA 70785",1-225-667-1966,1-225-667-1556,-90.861963,30.473091
La Quinta Inn & Suites Walla Walla,"776 Silverstone Dr,
Walla Walla, WA 99362",1-509-394-8815,1-509-394-8841,-118.3719,46.067882
La Quinta Inn & Suites Warner Robins - Robins AFB,"4080 Watson Blvd,
Warner Robins, GA 31093",1-478-333-6920,1-478-333-6940,-83.702265,32.615605
La Quinta Inn & Suites Warwick Providence Airport,"36 Jefferson Blvd,
Warwick, RI 02888",1-401-941-6600,1-401-785-1260,-71.435069,41.752326
La Quinta Inn Wausau,"1910 Stewart Ave,
Wausau, WI 54401",1-715-842-0421,1-715-845-5096,-89.659509,44.959111
La Quinta Inn & Suites Waxahachie,"311 Stadium Dr,
Waxahachie, TX 75165",1-972-937-5525,1-972-937-5528,-96.836253,32.416577
La Quinta Inn & Suites Weatherford OK,"4300 Carriage Way Drive,
Weatherford, OK 73096",1-580-302-7112,1-580-302-7117,-98.65447,35.534154
La Quinta Inn & Suites Weatherford,"1915 Wall St,
Weatherford, TX 76086",1-817-594-4481,1-817-594-4474,-97.790068,32.732303
La Quinta Inn & Suites Wenatchee,"1905 North Wenatchee Ave,
Wenatchee, WA 98801",1-509-664-6565,1-509-664-0122,-120.333181,47.451634
La Quinta Inn West Long Branch,"109 Route 36,
West Long Branch, NJ 07764",1-732-403-8700,1-732-229-2169,-74.019846,40.301176
La Quinta Inn & Suites West Monroe,"507 Constitution Dr,
West Monroe, LA 71292",1-318-570-5065,1-318-855-8519,-92.165724,32.509245
La Quinta Inn West Palm Beach - Florida Turnpike,"5981 Okeechobee Blvd,
West Palm Beach, FL 33417",1-561-697-3388,1-561-687-5175,-80.135171,26.708071
La Quinta Inn & Suites West Palm Beach Airport,"1910 Palm Beach Lakes Blvd,
West Palm Beach, FL 33409",1-561-689-8540,1-561-687-7616,-80.090998,26.716763
La Quinta Inn & Suites Wichita Airport,"5500 West Kellogg Dr,
Wichita, KS 67209",1-316-943-2181,1-316-943-6587,-97.406497,37.673299
La Quinta Inn Wichita Falls Event Center North,"1128 Central Fwy North,
Wichita Falls, TX 76306-2626",1-940-322-6971,1-940-723-2573,-98.518713,33.935122
La Quinta Inn & Suites Wichita Falls - MSU Area,"2511 E. Montgomery Place,
Wichita Falls, TX 76308",1-940-386-9547,1-940-386-9080,-98.533224,33.863217
La Quinta Inn & Suites Wichita Northeast,"2660 N. Greenwich Ct.,
Wichita, KS 67226",1-316-500-6220,1-316-500-6221,-97.200116,37.731197
La Quinta Inn & Suites Williams-Grand Canyon Area,"1100 West Cataract Lake Rd,
Williams, AZ 86046",1-928-635-0033,1-928-635-0044,-112.196763,35.250828
La Quinta Inn & Suites Williamsburg Historic Area,"600 Bypass Road,
Williamsburg, VA 23185",1-757-220-2800,1-757-220-8986,-76.709804,37.283797
La Quinta Inn Wilsonville,"8815 Southwest Sun Pl,
Wilsonville, OR 97070",1-503-682-3184,1-503-682-2351,-122.767568,45.336305
La Quinta Inn & Suites Winchester,"1055 Millwood Pike,
Winchester, VA 22602",1-540-678-8899,1-540-678-1369,-78.151929,39.160332
La Quinta Inn & Suites Winnie,"226 Spur 5,
Winnie, TX 77665",1-409-296-8800,1-409-296-8801,-94.38376,29.82996
La Quinta Inn & Suites Winston-Salem,"2020 Griffith Rd,
Winston-Salem, NC 27103",1-336-765-8777,1-336-765-8154,-80.310189,36.062144
La Quinta Inn & Suites Woodburn,"120 Arney Road NE,
Woodburn, OR 97071",1-503-982-1727,1-503-982-0355,-122.882499,45.152234
La Quinta Inn & Suites St. Paul-Woodbury,"700 Bielenberg Dr.,
Woodbury, MN 55125",1-651-264-0144,1-651-264-0145,-92.954831,44.938679
La Quinta Inn The Woodlands North,"28673 I-45 North,
The Woodlands, TX 77381",1-281-367-7722,1-281-367-9054,-95.452818,30.180008
La Quinta Inn & Suites Houston - Magnolia,"6930 FM 1488 Rd,
Magnolia, TX 77354",1-281-259-1757,1-281-259-1753,-95.573212,30.221085
La Quinta Inn & Suites Woodward,"3410 Williams Ave,
Woodward, OK 73801",1-580-256-5533,1-580-256-5535,-99.37608,36.411086
La Quinta Inn & Suites Woodway - Waco South,"6003 Woodway Dr,
Waco, TX 76712",1-254-772-0200,1-254-772-0201,-97.193129,31.51053
La Quinta Inn & Suites Dallas - Wylie,"2210 W FM 544,
Wylie, TX 75098",1-800-753-3757,1-469-969-0912,-96.562813,33.00785
La Quinta Inn & Suites Wytheville,"1800 East Main St,
Wytheville, VA 24382",1-276-228-7400,1-276-228-4788,-81.060951,36.947718
La Quinta Inn & Suites York,"1405 Kenneth Road,
York, PA 17408",1-717-767-2400,1-717-767-7419,-76.7635667,39.976745
La Quinta Inn & Suites at Zion Park/Springdale,"792 Zion Park Blvd.,
Springdale, UT 84767",1-435-627-5280,1-435-627-5285,-112.997305,37.189356
